{"type":"Feature","properties":{"zoneName":"AL","countryKey":"AL","countryName":"Albania"},"geometry":{"type":"MultiPolygon","coordinates":[[[[20.569,41.874],[20.5,42.211],[20.23,42.327],[20.065,42.546],[19.82,42.466],[19.698,42.655],[19.282,42.181],[19.4,42.104],[19.366,41.852],[19.586,41.818],[19.564,41.585],[19.395,41.401],[19.518,41.257],[19.442,41.144],[19.507,40.905],[19.309,40.644],[19.478,40.454],[19.478,40.214],[19.856,40.05],[20.018,39.844],[20,39.694],[20.204,39.648],[20.392,39.836],[20.31,39.99],[20.641,40.091],[20.738,40.309],[21.037,40.64],[20.965,40.849],[20.767,40.893],[20.576,41.094],[20.443,41.55],[20.569,41.874]]]]}}
