{"type":"Feature","properties":{"zoneName":"AM","countryKey":"AM","countryName":"Armenia"},"geometry":{"type":"MultiPolygon","coordinates":[[[[45,41.29],[44.55,41.18],[44.19,41.23],[43.73,41.11],[43.44,41.11],[43.61,40.96],[43.73,40.68],[43.56,40.46],[43.72,40.17],[43.67,40.11],[44.03,40.01],[44.26,40.04],[44.47,39.97],[44.78,39.7],[45.07,39.76],[45.14,39.68],[45.17,39.57],[45.27,39.59],[45.42,39.49],[45.72,39.57],[45.77,39.36],[45.9,39.29],[46.14,38.86],[46.51,38.88],[46.42,39.21],[46.6,39.22],[46.37,39.38],[46.41,39.45],[46.48,39.46],[46.53,39.54],[46.2,39.59],[45.82,39.84],[45.77,39.92],[45.58,39.97],[45.57,39.99],[45.87,40.01],[45.98,40.22],[45.94,40.27],[45.53,40.44],[45.37,40.63],[45.37,40.68],[45.56,40.78],[45.38,41.01],[45.07,41.11],[45,41.29]]]]}}
