{"type":"Feature","properties":{"zoneName":"AT","countryKey":"AT","countryName":"Austria"},"geometry":{"type":"MultiPolygon","coordinates":[[[[16.944,48.604],[16.872,48.719],[16.436,48.794],[16.357,48.727],[16.033,48.759],[15.262,48.983],[14.982,49.008],[14.92,48.761],[14.802,48.777],[14.697,48.59],[14.46,48.643],[14.316,48.558],[14.074,48.591],[13.815,48.766],[13.718,48.521],[13.52,48.584],[13.405,48.377],[13.034,48.263],[12.746,48.12],[12.991,47.847],[13.038,47.494],[12.778,47.555],[12.76,47.667],[12.498,47.629],[12.177,47.705],[12.166,47.604],[11.619,47.589],[11.259,47.401],[10.978,47.39],[10.791,47.516],[10.413,47.574],[10.453,47.439],[10.305,47.302],[9.754,47.582],[9.549,47.535],[9.65,47.409],[9.531,47.266],[9.622,47.14],[9.607,47.06],[9.859,47.016],[10.111,46.847],[10.366,46.996],[10.453,46.864],[10.996,46.769],[11.094,46.913],[11.313,46.987],[11.745,46.973],[12.213,47.09],[12.112,46.993],[12.447,46.679],[13.231,46.559],[14.406,46.439],[14.539,46.379],[14.852,46.601],[15.061,46.649],[15.464,46.615],[15.637,46.718],[16.015,46.694],[16.094,46.862],[16.274,47.004],[16.486,46.998],[16.425,47.35],[16.641,47.453],[16.63,47.622],[16.407,47.661],[16.609,47.751],[16.796,47.675],[17.077,47.708],[17.005,47.863],[17.149,48.006],[16.843,48.365],[16.944,48.604]]]]}}
