{"type":"Feature","properties":{"zoneName":"BA","countryKey":"BA","countryName":"Bosnia and Herzegovina"},"geometry":{"type":"MultiPolygon","coordinates":[[[[19.02,44.86],[18.84,44.86],[18.69,45.08],[18.54,45.09],[18.49,45.06],[18.45,45.09],[18.14,45.1],[17.8,45.08],[17.74,45.13],[17.19,45.15],[16.93,45.28],[16.79,45.18],[16.48,45.2],[16.35,45.02],[16.21,45.03],[16,45.22],[15.82,45.21],[15.79,45.19],[15.74,44.94],[15.74,44.79],[15.9,44.72],[16.21,44.36],[16.22,44.21],[16.72,43.83],[17.06,43.53],[17.24,43.48],[17.43,43.18],[17.64,43.09],[17.71,42.97],[17.58,42.94],[17.65,42.89],[18.37,42.57],[18.44,42.56],[18.52,42.6],[18.45,42.99],[18.64,43.02],[18.66,43.23],[18.9,43.35],[18.99,43.27],[19.07,43.31],[18.91,43.49],[19.48,43.56],[19.46,43.76],[19.24,43.95],[19.62,44.04],[19.18,44.29],[19.18,44.54],[19.36,44.9],[19.02,44.86]]]]}}
