{"type":"Feature","properties":{"zoneName":"BE","countryKey":"BE","countryName":"Belgium"},"geometry":{"type":"MultiPolygon","coordinates":[[[[2.52,51.09],[2.59,50.84],[2.87,50.7],[3.02,50.77],[3.16,50.75],[3.27,50.53],[3.65,50.45],[3.66,50.32],[4.02,50.34],[4.2,50.25],[4.14,49.98],[4.43,49.93],[4.66,49.99],[4.87,50.14],[4.79,49.97],[4.95,49.8],[5.48,49.5],[5.79,49.54],[5.88,49.64],[5.72,49.88],[6,50.18],[6.12,50.12],[6.37,50.32],[6.34,50.48],[6,50.75],[5.73,50.76],[5.66,50.81],[5.83,51.16],[5.47,51.29],[5.21,51.26],[5.01,51.47],[4.91,51.39],[4.76,51.5],[4.48,51.47],[4.26,51.37],[4.22,51.37],[3.93,51.21],[3.63,51.29],[3.39,51.25],[3.35,51.37],[3.13,51.33],[2.52,51.09]]]]}}
