{"type":"Feature","properties":{"zoneName":"BG","countryKey":"BG","countryName":"Bulgaria"},"geometry":{"type":"MultiPolygon","coordinates":[[[[26.332,41.713],[26.548,41.927],[27.272,42.091],[27.546,41.901],[27.808,41.994],[28.017,41.972],[27.628,42.459],[27.452,42.465],[27.744,42.717],[27.891,42.711],[27.884,43.009],[28.158,43.408],[28.474,43.366],[28.604,43.538],[28.579,43.741],[28.222,43.761],[27.981,43.85],[27.913,43.993],[27.384,44.015],[27.027,44.178],[26.152,44.012],[25.782,43.733],[25.36,43.654],[24.964,43.75],[24.5,43.8],[24.158,43.753],[23.326,43.887],[22.92,43.834],[22.887,43.995],[23.031,44.093],[22.693,44.228],[22.606,44.079],[22.401,43.993],[22.351,43.808],[22.52,43.474],[22.981,43.199],[22.725,42.887],[22.506,42.87],[22.426,42.573],[22.509,42.405],[22.344,42.313],[22.531,42.128],[22.844,42.014],[23.01,41.716],[22.916,41.336],[23.114,41.313],[23.287,41.399],[23.611,41.371],[24.046,41.526],[24.511,41.562],[24.774,41.348],[24.885,41.4],[25.285,41.24],[25.551,41.316],[25.882,41.304],[26.12,41.358],[26.163,41.517],[26.048,41.689],[26.332,41.713]]]]}}
