{"type":"Feature","properties":{"zoneName":"BY","countryKey":"BY","countryName":"Belarus"},"geometry":{"type":"MultiPolygon","coordinates":[[[[23.61,51.52],[23.75,51.65],[23.98,51.59],[24.24,51.72],[24.39,51.88],[24.72,51.88],[25.18,51.95],[25.77,51.93],[26.41,51.85],[26.85,51.75],[27.18,51.75],[27.25,51.6],[27.81,51.6],[28.07,51.56],[28.21,51.65],[28.35,51.52],[28.6,51.55],[28.73,51.4],[28.86,51.56],[29.12,51.63],[29.32,51.37],[29.62,51.49],[29.85,51.43],[30.15,51.48],[30.54,51.24],[30.64,51.34],[30.52,51.6],[30.66,51.82],[30.96,52.07],[31.25,52.04],[31.47,52.12],[31.76,52.1],[31.57,52.31],[31.51,52.85],[31.25,53.01],[31.37,53.11],[31.42,53.2],[31.74,53.19],[31.8,53.11],[32.08,53.08],[32.41,53.19],[32.72,53.43],[32.45,53.55],[32.46,53.71],[32.09,53.81],[31.74,53.79],[31.82,54.06],[31.33,54.23],[31.17,54.47],[31.17,54.62],[30.77,54.79],[30.81,54.93],[31.01,55.02],[30.79,55.29],[30.92,55.41],[30.91,55.58],[30.59,55.67],[30.47,55.79],[30.22,55.86],[29.87,55.83],[29.46,55.69],[29.34,55.79],[29.38,55.95],[29.03,56.02],[28.81,55.93],[28.62,56.08],[28.29,56.05],[28.16,56.16],[27.91,56.1],[27.65,55.92],[27.59,55.79],[26.98,55.83],[26.82,55.71],[26.6,55.67],[26.44,55.34],[26.8,55.27],[26.58,55.12],[26.31,55.14],[26.14,54.97],[25.78,54.87],[25.74,54.57],[25.53,54.35],[25.7,54.32],[25.74,54.15],[25.54,54.14],[25.47,54.3],[25.22,54.26],[25.07,54.13],[24.86,54.15],[24.79,53.97],[24.38,53.89],[24.2,53.95],[23.64,53.9],[23.48,53.94],[23.59,53.61],[23.9,53.15],[23.92,52.74],[23.87,52.67],[23.39,52.51],[23.16,52.29],[23.64,52.08],[23.56,51.75],[23.61,51.52]]]]}}
