{"type":"Feature","properties":{"zoneName":"CH","countryKey":"CH","countryName":"Switzerland"},"geometry":{"type":"MultiPolygon","coordinates":[[[[9.61,47.06],[9.47,47.06],[9.53,47.27],[9.65,47.41],[9.55,47.54],[9.27,47.65],[8.9,47.65],[8.6,47.79],[8.39,47.67],[8.45,47.58],[7.59,47.59],[7.38,47.43],[7.01,47.5],[6.87,47.35],[7.04,47.34],[6.6,46.99],[6.44,46.94],[6.43,46.76],[6.13,46.6],[6.14,46.36],[5.96,46.13],[6.28,46.24],[6.22,46.32],[6.48,46.45],[6.76,46.43],[6.85,46.12],[7.02,45.93],[7.18,45.88],[7.54,45.98],[7.85,45.94],[8.11,46.13],[8.07,46.25],[8.44,46.43],[8.43,46.25],[8.83,46.07],[8.9,45.83],[8.94,45.83],[9.17,46.18],[9.25,46.24],[9.26,46.48],[9.44,46.49],[9.56,46.29],[9.96,46.36],[10.16,46.26],[10.04,46.43],[10.1,46.61],[10.45,46.53],[10.48,46.56],[10.37,46.67],[10.45,46.86],[10.37,47],[10.11,46.85],[9.86,47.02],[9.61,47.06]]]]}}
