{"type":"Feature","properties":{"zoneName":"CZ","countryKey":"CZ","countryName":"Czechia"},"geometry":{"type":"MultiPolygon","coordinates":[[[[16.94,48.6],[17.17,48.86],[17.53,48.81],[18.07,49.05],[18.19,49.28],[18.53,49.48],[18.83,49.51],[18.77,49.68],[18.64,49.7],[18.56,49.91],[18.04,50.01],[17.84,49.97],[17.59,50.16],[17.61,50.26],[17.34,50.27],[17.18,50.38],[16.86,50.42],[16.96,50.23],[16.7,50.1],[16.34,50.37],[16.19,50.42],[16.38,50.51],[16.33,50.64],[16.09,50.65],[15.44,50.8],[15.27,50.95],[14.96,50.99],[14.98,50.86],[14.61,50.85],[14.49,51.02],[14.29,51.04],[14.35,50.88],[13.6,50.71],[13.45,50.6],[12.51,50.39],[12.29,50.16],[12.08,50.32],[12.25,50.05],[12.52,49.9],[12.38,49.74],[12.8,49.33],[13,49.3],[13.18,49.12],[13.48,48.94],[13.61,48.95],[14.07,48.59],[14.32,48.56],[14.46,48.64],[14.7,48.59],[14.8,48.78],[14.92,48.76],[14.98,49.01],[15.26,48.98],[16.03,48.76],[16.36,48.73],[16.44,48.79],[16.87,48.72],[16.94,48.6]]]]}}
