{"type":"Feature","properties":{"zoneName":"DE","countryKey":"DE","countryName":"Germany"},"geometry":{"type":"MultiPolygon","coordinates":[[[[13.815,48.766],[13.61,48.946],[13.484,48.937],[13.178,49.118],[13.002,49.295],[12.796,49.328],[12.382,49.743],[12.523,49.905],[12.246,50.045],[12.076,50.316],[12.285,50.163],[12.512,50.389],[13.448,50.598],[13.603,50.712],[14.348,50.881],[14.287,51.037],[14.492,51.017],[14.614,50.845],[14.809,50.858],[15.021,51.237],[14.946,51.449],[14.733,51.516],[14.586,51.804],[14.762,52.077],[14.539,52.422],[14.643,52.577],[14.125,52.85],[14.344,53.049],[14.409,53.272],[14.265,53.7],[13.895,53.806],[13.849,53.838],[14.064,53.871],[14.212,53.869],[14.225,53.928],[13.815,54.174],[13.787,54.065],[13.7,54.154],[13.466,54.098],[13.113,54.28],[13.034,54.434],[12.876,54.366],[12.501,54.473],[12.343,54.304],[12.051,54.18],[11.659,54.142],[11.457,53.906],[11.176,54.018],[10.888,53.963],[10.752,54.044],[11.068,54.184],[11.079,54.343],[10.777,54.316],[10.021,54.546],[10.035,54.673],[9.581,54.866],[9.437,54.811],[8.825,54.907],[8.66,54.897],[8.689,54.735],[9.013,54.506],[8.627,54.387],[8.653,54.275],[8.84,54.255],[8.833,54.036],[9.009,53.892],[9.212,53.859],[8.861,53.83],[8.573,53.858],[8.483,53.683],[8.566,53.547],[8.257,53.604],[8.167,53.553],[7.951,53.722],[7.227,53.666],[7.087,53.587],[7.022,53.377],[7.303,53.332],[7.195,53.245],[7.184,52.966],[7.036,52.647],[6.77,52.641],[6.694,52.475],[6.975,52.451],[7.025,52.23],[6.676,52.034],[6.809,51.96],[6.381,51.828],[6.125,51.897],[5.927,51.807],[6.1,51.645],[6.208,51.388],[6.064,51.232],[6.147,51.153],[5.92,51.03],[6.064,50.908],[5.996,50.749],[6.338,50.482],[6.374,50.316],[6.118,50.121],[6.223,49.888],[6.5,49.795],[6.345,49.456],[6.496,49.436],[6.701,49.172],[6.835,49.209],[7.267,49.105],[7.393,49.169],[7.648,49.036],[7.933,49.035],[8.199,48.959],[8.102,48.822],[7.81,48.616],[7.753,48.355],[7.573,48.095],[7.526,47.783],[7.587,47.585],[8.447,47.584],[8.39,47.665],[8.602,47.794],[8.905,47.652],[9.272,47.65],[9.549,47.535],[9.754,47.582],[10.305,47.302],[10.453,47.439],[10.413,47.574],[10.791,47.516],[10.978,47.39],[11.259,47.401],[11.619,47.589],[12.166,47.604],[12.177,47.705],[12.498,47.629],[12.76,47.667],[12.778,47.555],[13.038,47.494],[12.991,47.847],[12.746,48.12],[13.034,48.263],[13.405,48.377],[13.52,48.584],[13.718,48.521],[13.815,48.766]]],[[[13.7,54.393],[13.369,54.585],[13.167,54.549],[13.268,54.257],[13.7,54.393]]]]}}
