{"type":"Feature","properties":{"zoneName":"DK-DK1","countryKey":"DK","countryName":"Denmark"},"geometry":{"type":"MultiPolygon","coordinates":[[[[9.437,54.811],[9.585,54.928],[9.747,54.836],[9.74,54.981],[9.495,55.16],[9.711,55.249],[9.499,55.489],[9.855,55.626],[9.675,55.708],[10.06,55.749],[9.891,55.837],[10.244,55.914],[10.219,56.147],[10.402,56.298],[10.532,56.1],[10.752,56.216],[10.964,56.448],[10.788,56.537],[10.359,56.562],[10.334,56.704],[10.194,56.694],[10.341,56.717],[10.266,56.907],[10.539,57.236],[10.546,57.435],[10.431,57.571],[10.597,57.752],[10.197,57.601],[9.967,57.591],[9.574,57.244],[9.412,57.165],[8.617,57.123],[8.242,56.777],[8.541,56.592],[8.483,56.781],[8.678,56.953],[9.113,57.059],[9.265,57.003],[9.787,57.103],[9.617,56.974],[9.437,57.025],[9.164,56.894],[9.326,56.67],[8.955,56.803],[8.743,56.635],[8.728,56.484],[8.566,56.579],[8.311,56.579],[8.177,56.673],[8.123,56.552],[8.105,56.12],[8.282,56.076],[8.386,55.893],[8.174,55.801],[8.095,55.563],[8.311,55.562],[8.617,55.437],[8.689,55.141],[8.469,55.177],[8.483,55.068],[8.681,55.133],[8.66,54.897],[8.825,54.907],[9.437,54.811]]],[[[8.825,56.744],[8.919,56.93],[8.649,56.89],[8.545,56.791],[8.649,56.681],[8.825,56.744]]],[[[11.144,57.332],[10.856,57.265],[11.029,57.202],[11.144,57.332]]],[[[10.01,54.975],[9.794,55.081],[9.815,54.901],[10.064,54.891],[10.01,54.975]]],[[[10.944,55.143],[10.64,54.844],[10.704,54.73],[10.944,55.143]]],[[[10.665,55.064],[10.816,55.214],[10.798,55.359],[10.294,55.616],[9.675,55.496],[9.884,55.349],[9.884,55.253],[10.204,55.094],[10.665,55.064]]]]}}
