{"type":"Feature","properties":{"zoneName":"DK-DK2","countryKey":"DK","countryName":"Denmark"},"geometry":{"type":"MultiPolygon","coordinates":[[[[11.853,55.732],[11.662,55.907],[11.252,55.729],[10.96,55.724],[11.148,55.558],[11.205,55.392],[11.086,55.366],[11.263,55.2],[11.648,55.181],[11.882,54.975],[11.749,54.874],[11.914,54.73],[11.882,54.65],[11.931,54.571],[11.97,54.562],[11.961,54.695],[12.17,54.838],[11.958,54.948],[12.148,54.994],[12.184,55.227],[12.441,55.269],[12.444,55.349],[12.199,55.488],[12.361,55.605],[12.6,55.554],[12.69,55.592],[12.602,55.708],[12.578,55.829],[12.512,55.921],[12.624,56.044],[12.246,56.129],[11.864,55.973],[12.026,55.941],[12.076,55.78],[11.997,55.903],[11.853,55.732]]],[[[11.256,54.955],[11.09,54.944],[11,54.786],[11.475,54.626],[11.767,54.646],[11.857,54.743],[11.727,54.874],[11.594,54.811],[11.256,54.955]]],[[[12.537,55.002],[12.336,55.034],[12.13,54.954],[12.137,54.887],[12.228,54.892],[12.321,54.956],[12.534,54.947],[12.537,55.002]]],[[[15.151,55.133],[14.762,55.309],[14.683,55.101],[15.072,54.991],[15.151,55.133]]]]}}
