{"type":"Feature","properties":{"zoneName":"EE","countryKey":"EE","countryName":"Estonia"},"geometry":{"type":"MultiPolygon","coordinates":[[[[24.306,57.869],[25.263,58.075],[25.602,57.912],[26.001,57.846],[26.026,57.774],[26.498,57.515],[26.872,57.627],[27.351,57.528],[27.538,57.812],[27.7,57.825],[27.495,58.221],[27.556,58.396],[27.409,58.755],[27.697,58.977],[27.884,59.276],[28.186,59.374],[28.017,59.482],[27.873,59.407],[26.826,59.477],[25.724,59.666],[25.407,59.492],[25.144,59.539],[24.021,59.379],[24.093,59.313],[23.47,59.213],[23.409,59.025],[23.431,58.765],[23.532,58.748],[23.517,58.554],[23.665,58.536],[23.74,58.343],[24.111,58.241],[24.327,58.388],[24.529,58.351],[24.464,58.072],[24.306,57.869]]],[[[23.229,58.504],[22.898,58.62],[22.585,58.635],[22.113,58.499],[21.886,58.499],[22.012,58.354],[21.868,58.265],[22.203,58.148],[21.998,57.983],[22.189,57.983],[22.322,58.207],[22.668,58.221],[23.02,58.363],[23.229,58.504]]],[[[23.38,58.58],[23.287,58.666],[23.06,58.603],[23.38,58.58]]],[[[22.293,58.895],[22.556,58.687],[22.736,58.806],[23.042,58.841],[22.934,58.984],[22.599,59.09],[22.462,58.971],[22.056,58.952],[22.293,58.895]]]]}}
