{"type":"Feature","properties":{"zoneName":"ES"},"geometry":{"type":"MultiPolygon","coordinates":[[[[-1.79,43.39],[-1.8,43.34],[-1.75,43.29],[-1.65,43.3],[-1.63,43.25],[-1.59,43.25],[-1.57,43.28],[-1.43,43.27],[-1.4,43.24],[-1.41,43.17],[-1.49,43.08],[-1.48,43.06],[-1.37,43.03],[-1.33,43.11],[-1.29,43.11],[-1.31,43.07],[-1.15,43.01],[-0.94,42.95],[-0.76,42.95],[-0.74,42.88],[-0.65,42.85],[-0.57,42.77],[-0.53,42.81],[-0.42,42.79],[-0.32,42.84],[-0.21,42.78],[-0.16,42.8],[-0.16,42.76],[-0.11,42.71],[-0.04,42.69],[0.17,42.73],[0.24,42.71],[0.28,42.67],[0.35,42.72],[0.41,42.68],[0.64,42.68],[0.67,42.7],[0.63,42.74],[0.65,42.82],[0.68,42.85],[0.72,42.85],[0.92,42.78],[0.95,42.8],[0.98,42.78],[1.07,42.78],[1.15,42.71],[1.34,42.71],[1.43,42.6],[1.41,42.53],[1.45,42.5],[1.41,42.49],[1.45,42.43],[1.53,42.43],[1.54,42.45],[1.64,42.47],[1.65,42.5],[1.71,42.5],[1.93,42.44],[1.98,42.35],[2.05,42.35],[2.14,42.42],[2.28,42.43],[2.5,42.33],[2.54,42.35],[2.66,42.34],[2.64,42.37],[2.69,42.41],[2.79,42.41],[2.93,42.47],[3.03,42.47],[3.07,42.43],[3.18,42.43],[3.17,42.36],[3.32,42.32],[3.26,42.24],[3.15,42.26],[3.12,42.22],[3.12,42.14],[3.21,42.07],[3.21,41.98],[3.24,41.97],[3.21,41.91],[2.93,41.71],[2.85,41.7],[2.78,41.65],[2.3,41.47],[2.13,41.3],[2.06,41.27],[1.54,41.19],[1.21,41.1],[1.18,41.06],[1.1,41.07],[0.99,41.04],[0.71,40.82],[0.69,40.79],[0.72,40.77],[0.77,40.77],[0.75,40.79],[0.77,40.79],[0.87,40.73],[0.86,40.69],[0.78,40.66],[0.71,40.58],[0.62,40.55],[0.59,40.58],[0.64,40.59],[0.66,40.57],[0.7,40.59],[0.73,40.63],[0.71,40.64],[0.56,40.59],[0.35,40.28],[0.21,40.17],[-0.09,39.85],[-0.33,39.48],[-0.3,39.32],[-0.22,39.18],[-0.23,39.11],[-0.16,39],[-0.03,38.88],[0.15,38.83],[0.23,38.77],[0.23,38.73],[0.09,38.67],[0.08,38.63],[-0.03,38.62],[-0.08,38.54],[-0.18,38.53],[-0.33,38.47],[-0.41,38.4],[-0.41,38.36],[-0.51,38.34],[-0.5,38.21],[-0.61,38.18],[-0.65,38.12],[-0.65,37.99],[-0.71,37.96],[-0.76,37.8],[-0.79,37.82],[-0.86,37.74],[-0.81,37.67],[-0.7,37.63],[-0.73,37.6],[-0.93,37.56],[-1.1,37.58],[-1.11,37.53],[-1.24,37.58],[-1.46,37.49],[-1.49,37.43],[-1.64,37.38],[-1.79,37.24],[-1.91,36.99],[-1.9,36.94],[-1.99,36.9],[-2.02,36.83],[-2.15,36.73],[-2.36,36.84],[-2.56,36.82],[-2.66,36.69],[-2.72,36.68],[-2.8,36.71],[-2.86,36.7],[-2.91,36.75],[-3.34,36.74],[-3.42,36.7],[-3.55,36.71],[-3.6,36.74],[-3.73,36.72],[-3.84,36.75],[-3.96,36.73],[-4.06,36.75],[-4.22,36.71],[-4.42,36.72],[-4.52,36.58],[-4.59,36.57],[-4.65,36.51],[-4.72,36.49],[-4.9,36.51],[-4.99,36.46],[-5.19,36.41],[-5.24,36.31],[-5.29,36.28],[-5.34,36.14],[-5.43,36.18],[-5.44,36.06],[-5.61,36.01],[-5.69,36.07],[-5.8,36.09],[-5.92,36.18],[-6.04,36.19],[-6.1,36.28],[-6.16,36.3],[-6.18,36.37],[-6.31,36.53],[-6.29,36.54],[-6.22,36.47],[-6.18,36.51],[-6.22,36.51],[-6.23,36.58],[-6.29,36.62],[-6.38,36.62],[-6.43,36.75],[-6.35,36.79],[-6.34,36.88],[-6.3,36.91],[-6.22,36.9],[-6.19,36.93],[-6.33,36.91],[-6.35,36.81],[-6.39,36.81],[-6.47,36.94],[-6.91,37.19],[-6.92,37.22],[-6.85,37.3],[-6.96,37.23],[-6.93,37.17],[-7.1,37.22],[-7.41,37.19],[-7.44,37.39],[-7.53,37.56],[-7.43,37.75],[-7.33,37.81],[-7.27,37.98],[-7.17,37.99],[-7.12,38.04],[-7.02,38.02],[-6.95,38.2],[-7.12,38.18],[-7.17,38.28],[-7.36,38.45],[-7.27,38.62],[-7.29,38.63],[-7.27,38.74],[-7.06,38.85],[-7.07,38.9],[-6.97,39.01],[-6.98,39.05],[-7.04,39.11],[-7.17,39.11],[-7.17,39.17],[-7.26,39.21],[-7.25,39.27],[-7.33,39.34],[-7.31,39.46],[-7.4,39.49],[-7.52,39.59],[-7.56,39.68],[-7.02,39.69],[-7,39.8],[-6.92,39.87],[-6.93,39.92],[-6.88,40.01],[-6.94,40.09],[-7.03,40.13],[-7.04,40.18],[-7.02,40.23],[-6.88,40.27],[-6.79,40.36],[-6.86,40.44],[-6.81,40.51],[-6.85,40.56],[-6.81,40.65],[-6.84,40.74],[-6.82,40.87],[-6.94,41],[-6.93,41.05],[-6.8,41.06],[-6.76,41.16],[-6.65,41.27],[-6.56,41.27],[-6.46,41.31],[-6.37,41.41],[-6.32,41.41],[-6.29,41.49],[-6.21,41.57],[-6.32,41.65],[-6.45,41.68],[-6.5,41.65],[-6.56,41.67],[-6.58,41.74],[-6.52,41.87],[-6.58,41.88],[-6.57,41.94],[-6.61,41.96],[-6.62,41.94],[-6.73,41.93],[-6.82,41.98],[-6.85,41.94],[-6.95,41.94],[-6.99,41.97],[-7.05,41.94],[-7.16,41.99],[-7.2,41.96],[-7.22,41.88],[-7.41,41.84],[-7.43,41.81],[-7.48,41.86],[-7.59,41.82],[-7.62,41.83],[-7.61,41.87],[-7.71,41.9],[-7.9,41.86],[-7.91,41.91],[-7.94,41.87],[-7.98,41.87],[-8.05,41.82],[-8.18,41.81],[-8.18,41.86],[-8.22,41.87],[-8.23,41.9],[-8.18,41.97],[-8.1,42.02],[-8.1,42.06],[-8.19,42.06],[-8.22,42.15],[-8.35,42.1],[-8.63,42.05],[-8.67,42],[-8.88,41.89],[-8.9,42.12],[-8.83,42.13],[-8.82,42.15],[-8.85,42.16],[-8.81,42.2],[-8.62,42.31],[-8.63,42.35],[-8.67,42.3],[-8.78,42.26],[-8.87,42.26],[-8.85,42.3],[-8.83,42.29],[-8.83,42.34],[-8.77,42.34],[-8.66,42.44],[-8.84,42.4],[-8.89,42.46],[-8.94,42.47],[-8.88,42.5],[-8.87,42.47],[-8.82,42.47],[-8.83,42.55],[-8.73,42.69],[-8.78,42.64],[-8.84,42.68],[-8.88,42.61],[-8.9,42.63],[-8.94,42.61],[-8.92,42.59],[-8.97,42.58],[-9.01,42.53],[-9.03,42.54],[-9.03,42.58],[-9.07,42.6],[-9.03,42.71],[-8.88,42.82],[-8.91,42.84],[-8.93,42.8],[-9.03,42.8],[-9.08,42.75],[-9.1,42.76],[-9.13,42.79],[-9.1,42.83],[-9.15,42.88],[-9.13,42.92],[-9.18,42.95],[-9.21,42.92],[-9.21,42.94],[-9.24,42.93],[-9.27,42.89],[-9.29,42.92],[-9.25,43.01],[-9.28,43.05],[-9.22,43.11],[-9.19,43.1],[-9.11,43.14],[-9.21,43.14],[-9.22,43.16],[-9.14,43.2],[-9.04,43.2],[-9.01,43.24],[-8.93,43.24],[-8.99,43.28],[-8.84,43.34],[-8.69,43.29],[-8.63,43.32],[-8.56,43.31],[-8.39,43.39],[-8.35,43.35],[-8.33,43.41],[-8.27,43.39],[-8.21,43.31],[-8.21,43.39],[-8.18,43.42],[-8.25,43.42],[-8.31,43.45],[-8.18,43.47],[-8.17,43.49],[-8.33,43.47],[-8.32,43.52],[-8.29,43.53],[-8.31,43.57],[-8.26,43.56],[-8.09,43.66],[-8.05,43.64],[-8.07,43.64],[-8.06,43.71],[-7.95,43.73],[-7.91,43.77],[-7.85,43.72],[-7.87,43.68],[-7.91,43.67],[-7.86,43.67],[-7.87,43.7],[-7.82,43.7],[-7.69,43.79],[-7.67,43.77],[-7.7,43.73],[-7.64,43.75],[-7.62,43.69],[-7.56,43.73],[-7.49,43.73],[-7.37,43.68],[-7.26,43.58],[-7.27,43.56],[-7.04,43.56],[-7.04,43.48],[-7,43.56],[-6.94,43.57],[-6.7,43.56],[-6.6,43.58],[-6.46,43.55],[-6.47,43.58],[-6.42,43.56],[-6.22,43.6],[-6.19,43.58],[-6.05,43.57],[-6.02,43.59],[-5.91,43.59],[-5.91,43.64],[-5.84,43.66],[-5.68,43.56],[-5.39,43.56],[-5.42,43.51],[-5.3,43.54],[-5.18,43.49],[-4.93,43.47],[-4.48,43.38],[-4.46,43.4],[-4.38,43.38],[-4.37,43.4],[-4.19,43.41],[-4.1,43.44],[-3.97,43.44],[-3.94,43.48],[-3.83,43.5],[-3.77,43.48],[-3.84,43.45],[-3.82,43.42],[-3.78,43.45],[-3.74,43.44],[-3.76,43.47],[-3.58,43.52],[-3.51,43.48],[-3.43,43.47],[-3.43,43.45],[-3.5,43.43],[-3.46,43.41],[-3.45,43.43],[-3.2,43.39],[-3.11,43.35],[-3.09,43.37],[-3.01,43.32],[-3.03,43.38],[-2.95,43.43],[-2.79,43.45],[-2.73,43.44],[-2.69,43.37],[-2.68,43.41],[-2.64,43.41],[-2.37,43.32],[-2.28,43.3],[-2.19,43.31],[-2.16,43.29],[-1.97,43.34],[-1.92,43.32],[-1.9,43.33],[-1.93,43.34],[-1.81,43.4],[-1.79,43.39]]],[[[1.98,42.44],[1.95,42.45],[1.97,42.49],[2,42.44],[1.98,42.44]]],[[[-0.73,37.75],[-0.73,37.67],[-0.75,37.77],[-0.73,37.75]]],[[[1.53,38.68],[1.57,38.69],[1.58,38.65],[1.46,38.68],[1.38,38.64],[1.38,38.71],[1.44,38.76],[1.49,38.69],[1.53,38.68]]],[[[1.61,39.09],[1.62,39.03],[1.5,38.92],[1.41,38.89],[1.4,38.83],[1.3,38.87],[1.23,38.87],[1.22,38.95],[1.3,38.97],[1.29,39.03],[1.36,39.08],[1.52,39.12],[1.61,39.09]]],[[[3.35,39.78],[3.47,39.75],[3.47,39.69],[3.41,39.64],[3.41,39.59],[3.29,39.48],[3.28,39.42],[3.07,39.27],[2.95,39.37],[2.83,39.36],[2.76,39.4],[2.74,39.52],[2.68,39.56],[2.63,39.56],[2.49,39.47],[2.48,39.52],[2.45,39.54],[2.39,39.52],[2.35,39.58],[2.36,39.61],[2.53,39.71],[2.59,39.72],[2.78,39.86],[3.18,39.97],[3.21,39.96],[3.1,39.91],[3.09,39.88],[3.21,39.89],[3.12,39.81],[3.19,39.75],[3.29,39.75],[3.35,39.78]]],[[[4.3,39.93],[4.34,39.87],[4.3,39.89],[4.3,39.82],[4.25,39.82],[4.02,39.93],[3.83,39.94],[3.85,39.98],[3.8,40.02],[3.82,40.05],[4.08,40.06],[4.11,40.08],[4.14,40.02],[4.18,40.06],[4.26,39.99],[4.25,39.95],[4.3,39.93]]],[[[2.99,39.17],[2.96,39.12],[2.93,39.12],[2.91,39.15],[2.98,39.19],[2.99,39.17]]]]}}
