{"type":"Feature","properties":{"zoneName":"FI","countryKey":"FI","countryName":"Finland"},"geometry":{"type":"MultiPolygon","coordinates":[[[[28.93,69.05],[28.46,68.9],[28.8,68.84],[28.44,68.54],[28.65,68.2],[29.33,68.07],[29.66,67.8],[30.02,67.67],[29.93,67.52],[29.08,67],[29.03,66.93],[29.06,66.86],[29.36,66.63],[29.69,66.29],[29.92,66.12],[30.09,65.83],[30.14,65.67],[29.72,65.64],[29.74,65.35],[29.61,65.25],[29.83,65.2],[29.82,65.09],[29.59,64.99],[29.78,64.8],[30.06,64.78],[30.14,64.63],[29.96,64.58],[30.03,64.4],[30.56,64.22],[30.51,63.99],[30.27,63.82],[29.97,63.76],[30.49,63.46],[30.79,63.41],[31.24,63.22],[31.25,63.12],[31.57,62.91],[31.24,62.5],[30.68,62.2],[29.29,61.32],[28.8,61.1],[28.65,60.95],[28.52,60.95],[27.87,60.6],[27.81,60.55],[27.46,60.46],[27.18,60.57],[26.69,60.42],[26.33,60.38],[26.01,60.46],[25.93,60.24],[25.73,60.25],[25.67,60.36],[25.5,60.25],[24.6,60.13],[24.47,60],[24.37,60.07],[23.77,59.97],[23.43,59.96],[23.25,59.84],[22.91,59.81],[23.25,59.92],[23.26,60.04],[23,60.06],[22.88,60.3],[22.52,60.2],[22.63,60.37],[22.29,60.38],[21.88,60.53],[21.84,60.63],[21.64,60.5],[21.38,60.65],[21.43,60.9],[21.3,61.06],[21.45,61.05],[21.56,61.2],[21.54,61.65],[21.37,61.94],[21.23,61.98],[21.34,62.36],[21.13,62.4],[21.2,62.6],[21.08,62.68],[21.23,62.86],[21.46,62.95],[21.49,63.07],[21.69,63.03],[21.5,63.21],[21.89,63.26],[21.9,63.18],[22.37,63.32],[22.19,63.46],[22.43,63.49],[22.59,63.7],[22.83,63.65],[22.99,63.82],[23.37,63.9],[23.38,64.05],[23.94,64.25],[24,64.38],[24.35,64.53],[24.42,64.68],[24.77,64.87],[25.07,64.92],[25.26,64.82],[25.44,64.97],[25.21,65.12],[25.35,65.48],[25.09,65.61],[24.69,65.63],[24.54,65.81],[24.16,65.82],[24.02,66.05],[23.72,66.21],[23.64,66.44],[23.88,66.56],[24,66.81],[23.58,67.15],[23.77,67.42],[23.43,67.49],[23.55,67.59],[23.5,67.88],[23.66,67.93],[23.15,68.13],[23.05,68.3],[22.81,68.39],[22.07,68.48],[21.92,68.57],[21.47,68.69],[20.94,68.97],[20.55,69.06],[20.72,69.12],[21.06,69.04],[21.11,69.1],[21,69.22],[21.28,69.31],[21.63,69.28],[22.18,68.95],[22.19,68.92],[22.34,68.83],[22.38,68.72],[22.53,68.74],[22.79,68.69],[23.04,68.69],[23.2,68.62],[23.73,68.72],[23.93,68.82],[24.66,68.67],[24.91,68.56],[24.98,68.61],[25.13,68.65],[25.2,68.81],[25.6,68.87],[25.73,68.94],[25.8,69.01],[25.75,69.06],[25.73,69.19],[25.88,69.37],[25.89,69.52],[26.03,69.7],[26.18,69.71],[26.5,69.92],[26.71,69.94],[27.1,69.9],[27.44,70],[27.9,70.07],[28.38,69.82],[29.15,69.66],[29.35,69.46],[28.85,69.2],[28.81,69.11],[28.93,69.05]]],[[[22.85,60.11],[22.68,60],[22.47,60],[22.45,60.19],[22.84,60.24],[22.85,60.11]]],[[[24.63,64.97],[24.56,65.04],[24.99,65.06],[24.63,64.97]]]]}}
