{"type": "Feature", "properties": {"zoneName": "FR-COR", "countryKey": "FR", "countryName": "France"}, "geometry": {"type": "MultiPolygon", "coordinates": [[[[8.566285662856643, 42.2085458873553], [8.742687426874284, 42.0439713615651], [8.695886958869607, 41.72913313831427], [8.922689226892288, 41.694787150323265], [8.793087930879324, 41.561696446858136], [9.221492214922165, 41.372793512907634], [9.40149401494017, 41.70623581298693], [9.40149401494017, 41.95238206025576], [9.55269552695529, 42.112663337547104], [9.484294842948458, 42.83249800252514], [9.340293402934066, 42.99134819698351], [9.293492934929361, 42.67507889089973], [9.106291062910657, 42.72659787288622], [8.717487174871764, 42.562023347096016], [8.559085590855943, 42.34592983931931], [8.566285662856643, 42.2085458873553]]]]}}