{"type":"Feature","properties":{"zoneName":"FR","countryKey":"FR","countryName":"France"},"geometry":{"type":"MultiPolygon","coordinates":[[[[1.32,42.71],[0.66,42.84],[0.64,42.69],[-0.04,42.69],[-0.32,42.84],[-0.58,42.8],[-0.76,42.95],[-0.98,42.96],[-1.49,43.08],[-1.4,43.24],[-1.75,43.29],[-1.79,43.39],[-1.66,43.4],[-1.48,43.58],[-1.19,44.67],[-1.26,44.63],[-1.14,45.49],[-1.09,45.57],[-0.77,45.33],[-0.75,45.42],[-1.19,45.71],[-1.07,45.91],[-1.11,46.26],[-1.81,46.5],[-1.86,46.63],[-2.12,46.82],[-1.99,47.05],[-2.56,47.38],[-2.39,47.42],[-2.5,47.53],[-2.82,47.5],[-2.77,47.63],[-3.07,47.58],[-3.53,47.78],[-3.85,47.8],[-3.94,47.89],[-4.37,47.81],[-4.43,47.98],[-4.69,48.07],[-4.29,48.11],[-4.54,48.3],[-4.36,48.41],[-4.75,48.34],[-4.78,48.49],[-4.56,48.63],[-3.97,48.73],[-3.57,48.69],[-3.52,48.84],[-3.09,48.87],[-2.68,48.51],[-2.31,48.69],[-2.21,48.58],[-1.85,48.71],[-1.84,48.62],[-1.37,48.66],[-1.55,48.75],[-1.6,49.23],[-1.82,49.4],[-1.94,49.72],[-1.6,49.65],[-1.39,49.71],[-1.19,49.43],[-0.82,49.36],[-0.41,49.34],[-0.22,49.28],[0.41,49.45],[0.11,49.49],[0.24,49.73],[0.68,49.88],[1.17,49.96],[1.54,50.28],[1.58,50.87],[1.97,51.01],[2.52,51.09],[2.59,50.84],[2.87,50.7],[3.02,50.77],[3.16,50.75],[3.27,50.53],[3.65,50.45],[3.66,50.32],[4.02,50.34],[4.2,50.25],[4.14,49.98],[4.43,49.93],[4.66,49.99],[4.87,50.14],[4.79,49.97],[4.95,49.8],[5.48,49.5],[5.79,49.54],[5.96,49.44],[6.35,49.46],[6.5,49.44],[6.7,49.17],[6.83,49.21],[7.27,49.1],[7.39,49.17],[7.65,49.04],[7.93,49.03],[8.2,48.96],[8.1,48.82],[7.81,48.62],[7.75,48.36],[7.57,48.09],[7.53,47.78],[7.59,47.59],[7.38,47.43],[7.01,47.5],[6.87,47.35],[7.04,47.34],[6.6,46.99],[6.44,46.94],[6.43,46.76],[6.13,46.6],[6.14,46.36],[5.96,46.13],[6.28,46.24],[6.22,46.32],[6.48,46.45],[6.76,46.43],[6.85,46.12],[7.02,45.93],[6.78,45.78],[7.08,45.47],[7.11,45.26],[6.85,45.13],[6.6,45.1],[6.73,44.93],[7.01,44.82],[7.05,44.7],[6.94,44.67],[6.87,44.36],[7.38,44.12],[7.68,44.11],[7.71,44.07],[7.48,43.87],[7.51,43.78],[7.41,43.74],[7.41,43.72],[7.15,43.66],[7.14,43.55],[6.73,43.41],[6.6,43.28],[6.68,43.2],[5.86,43.04],[5.64,43.19],[5.35,43.22],[5.29,43.35],[5.06,43.33],[4.93,43.44],[4.82,43.35],[4.57,43.37],[4.51,43.46],[4.21,43.46],[3.94,43.53],[3.39,43.28],[3.11,43.11],[3.04,42.94],[3.05,42.55],[3.18,42.43],[2.93,42.47],[2.46,42.34],[2.28,42.43],[2.05,42.35],[1.71,42.5],[1.72,42.61],[1.43,42.59],[1.32,42.71]]],[[[-1.21,45.81],[-1.41,46.05],[-1.22,45.94],[-1.21,45.81]]]]}}
