{"type": "Feature", "properties": {"zoneName": "GB-NIR", "countryKey": "GB", "countryName": "United Kingdom"}, "geometry": {"type": "MultiPolygon", "coordinates": [[[[-7.248672486724843, 55.06968730715181], [-7.403474034740327, 55.003857496835735], [-7.543875438754355, 54.74196933840436], [-7.846278462784596, 54.73052067574069], [-7.752677526775244, 54.614602966271065], [-8.173881738817357, 54.46147710314453], [-7.835478354783532, 54.203882193212024], [-7.309873098730947, 54.115155057568614], [-7.050670506705046, 54.41138920399098], [-6.615066150661477, 54.03787658458886], [-6.269462694626924, 54.09798206357311], [-6.039060390603879, 54.03644550175591], [-5.862658626586239, 54.23107276703824], [-5.55305553055527, 54.29833366018728], [-5.707857078570754, 54.35128372500674], [-5.574655746557426, 54.52873799629357], [-5.502655026550229, 54.33983506234307], [-5.434254342543397, 54.4657703516434], [-5.535055350553478, 54.65753545125982], [-5.72945729457291, 54.72908959290774], [-6.100261002610011, 55.212795590447655], [-6.474664746647449, 55.24857266127161], [-6.964269642696394, 55.19419151361919], [-7.065070650706474, 55.04392781615857], [-7.248672486724843, 55.06968730715181]]]]}}