{"type":"Feature","properties":{"zoneName":"GB","countryKey":"GB","countryName":"United Kingdom"},"geometry":{"type":"MultiPolygon","coordinates":[[[[-5.117,55.44],[-5.161,55.676],[-5.355,55.689],[-5.344,55.483],[-5.117,55.44]]],[[[-6.104,55.831],[-6.14,55.941],[-6.453,55.841],[-6.244,55.661],[-6.025,55.682],[-6.104,55.831]]],[[[-5.78,56.021],[-5.747,56.142],[-6.075,55.915],[-5.963,55.805],[-5.78,56.021]]],[[[-6.032,56.62],[-6.338,56.552],[-6.129,56.475],[-6.327,56.278],[-5.657,56.401],[-6.032,56.62]]],[[[-7.353,57.408],[-7.454,57.236],[-7.353,57.099],[-7.202,57.291],[-7.353,57.408]]],[[[-7.187,57.656],[-7.475,57.661],[-7.544,57.593],[-7.159,57.511],[-7.187,57.656]]],[[[-6.313,57.703],[-6.388,57.517],[-6.784,57.457],[-6.482,57.312],[-6.32,57.16],[-6.025,57.196],[-6.007,57.029],[-5.647,57.265],[-5.902,57.244],[-6.158,57.408],[-6.154,57.59],[-6.313,57.703]]],[[[-6.194,58.357],[-6.266,58.511],[-6.82,58.285],[-6.709,58.189],[-7.033,58.245],[-7.112,57.991],[-6.838,57.936],[-7.101,57.812],[-6.982,57.734],[-6.352,58.039],[-6.399,58.209],[-6.194,58.357]]],[[[-3.569,54.995],[-3.082,54.962],[-3.389,54.884],[-3.634,54.513],[-3.242,54.112],[-3.026,54.221],[-2.795,54.125],[-3.019,53.932],[-3.047,53.769],[-2.9,53.736],[-3.184,53.377],[-3.083,53.258],[-3.332,53.352],[-4.153,53.228],[-4.358,53.029],[-4.761,52.79],[-4.516,52.79],[-4.408,52.893],[-4.102,52.914],[-4.052,52.542],[-4.196,52.279],[-4.833,52.019],[-5.081,52.021],[-5.29,51.917],[-4.941,51.596],[-4.678,51.718],[-4.394,51.764],[-4.289,51.555],[-3.854,51.624],[-3.541,51.399],[-3.184,51.398],[-2.975,51.564],[-2.666,51.618],[-2.716,51.499],[-3.011,51.312],[-3.022,51.193],[-3.386,51.186],[-3.767,51.247],[-4.153,51.211],[-4.336,50.997],[-4.527,51.015],[-4.549,50.809],[-4.793,50.595],[-5.024,50.525],[-5.049,50.429],[-5.438,50.194],[-5.686,50.161],[-5.704,50.052],[-5.474,50.131],[-5.189,49.959],[-5.053,50.195],[-4.801,50.23],[-4.754,50.33],[-4.167,50.376],[-3.789,50.213],[-3.645,50.225],[-3.487,50.412],[-3.494,50.547],[-3.26,50.675],[-2.864,50.734],[-2.464,50.585],[-2.435,50.638],[-1.985,50.596],[-1.939,50.691],[-1.316,50.801],[-0.92,50.837],[-0.812,50.735],[-0.571,50.802],[-0.175,50.829],[0.272,50.748],[0.801,50.94],[0.981,50.918],[1.028,51.041],[1.355,51.131],[1.424,51.392],[0.977,51.349],[0.556,51.412],[0.455,51.505],[0.873,51.559],[0.977,51.824],[1.201,51.878],[1.582,52.082],[1.769,52.487],[1.643,52.776],[1.276,52.929],[0.571,52.969],[0.38,52.791],[0.009,52.886],[0.329,53.086],[0.344,53.226],[0.153,53.475],[-0.189,53.62],[0.135,53.643],[-0.218,54.022],[-0.074,54.112],[-0.398,54.27],[-0.563,54.477],[-1.103,54.625],[-1.298,54.781],[-1.521,55.167],[-1.633,55.585],[-1.816,55.634],[-2.147,55.917],[-2.633,56.059],[-2.803,56.064],[-3.091,55.948],[-3.577,56.017],[-3.177,56.059],[-2.965,56.206],[-2.576,56.283],[-2.839,56.366],[-2.885,56.458],[-2.529,56.581],[-2.439,56.735],[-2.219,56.873],[-1.982,57.319],[-1.759,57.474],[-1.931,57.683],[-3.08,57.67],[-3.49,57.713],[-3.591,57.641],[-4.25,57.497],[-3.789,57.83],[-4.041,57.819],[-4.077,57.943],[-3.22,58.305],[-3.087,58.414],[-3.019,58.64],[-3.346,58.652],[-3.811,58.573],[-4.66,58.556],[-4.988,58.629],[-5.171,58.354],[-5.096,58.277],[-5.395,58.245],[-5.301,58.071],[-5.449,58.085],[-5.096,57.87],[-5.366,57.943],[-5.456,57.853],[-5.614,57.929],[-5.809,57.845],[-5.654,57.531],[-5.837,57.58],[-5.809,57.355],[-5.6,57.279],[-5.873,56.887],[-5.852,56.747],[-6.223,56.695],[-5.895,56.675],[-6.003,56.618],[-5.668,56.498],[-5.269,56.713],[-5.596,56.259],[-5.51,56.189],[-5.697,55.983],[-5.614,55.764],[-5.783,55.313],[-5.513,55.373],[-5.492,55.645],[-5.319,55.782],[-5.333,55.897],[-4.984,55.871],[-4.851,56.113],[-4.786,55.957],[-4.919,55.708],[-4.617,55.496],[-5.009,55.141],[-5.128,54.849],[-4.858,54.633],[-4.955,54.811],[-4.858,54.866],[-4.372,54.682],[-4.405,54.908],[-3.965,54.772],[-3.843,54.866],[-3.598,54.878],[-3.569,54.995]]],[[[-1.082,50.713],[-1.294,50.774],[-1.496,50.672],[-1.168,50.603],[-1.082,50.713]]],[[[-4.099,53.309],[-4.275,53.401],[-4.57,53.392],[-4.412,53.132],[-4.099,53.309]]],[[[-2.727,58.971],[-3.13,59.005],[-2.993,59.074],[-3.325,59.127],[-3.368,59.017],[-3.202,58.916],[-2.983,58.961],[-2.839,58.882],[-2.727,58.971]]]]}}
