{"type":"Feature","properties":{"zoneName":"GE","countryKey":"GE","countryName":"Georgia"},"geometry":{"type":"MultiPolygon","coordinates":[[[[45,41.29],[45.25,41.44],[45.32,41.45],[45.74,41.33],[45.75,41.24],[45.82,41.21],[46.09,41.18],[46.23,41.2],[46.5,41.05],[46.62,41.12],[46.63,41.35],[46.31,41.52],[46.19,41.74],[46.43,41.89],[46.22,41.99],[45.95,42.02],[45.62,42.22],[45.74,42.47],[45.36,42.52],[45.1,42.7],[45.07,42.69],[44.86,42.76],[44.78,42.62],[44.64,42.74],[44.27,42.7],[44.2,42.63],[43.92,42.56],[43.75,42.6],[43.8,42.75],[43.48,42.87],[43.2,42.93],[43,43.1],[42.75,43.18],[42.6,43.14],[42.36,43.24],[42.08,43.19],[41.55,43.23],[41.38,43.33],[41.01,43.37],[40.68,43.53],[40.23,43.58],[40.06,43.54],[39.99,43.39],[40.22,43.32],[40.34,43.14],[40.86,43.06],[41.02,42.99],[41.15,42.8],[41.38,42.76],[41.5,42.64],[41.55,42.39],[41.77,41.9],[41.68,41.66],[41.52,41.51],[41.81,41.42],[41.95,41.51],[42.44,41.43],[42.59,41.58],[42.82,41.57],[43.23,41.17],[43.44,41.11],[43.73,41.11],[44.19,41.23],[44.55,41.18],[45,41.29]]]]}}
