{"type":"Feature","properties":{"zoneName":"GR","countryKey":"GR","countryName":"Greece"},"geometry":{"type":"MultiPolygon","coordinates":[[[[20.2,39.65],[20.39,39.84],[20.31,39.99],[20.64,40.09],[20.74,40.31],[21.04,40.64],[20.96,40.85],[21.26,40.86],[21.43,40.91],[21.76,40.92],[21.9,41.08],[22.21,41.16],[22.42,41.12],[22.66,41.17],[22.75,41.15],[22.75,41.32],[22.92,41.34],[23.11,41.31],[23.29,41.4],[23.61,41.37],[24.05,41.53],[24.51,41.56],[24.77,41.35],[24.89,41.4],[25.16,41.31],[25.28,41.24],[25.55,41.32],[25.88,41.3],[26.12,41.36],[26.16,41.52],[26.05,41.69],[26.33,41.71],[26.6,41.61],[26.63,41.38],[26.33,41.25],[26.36,40.96],[26.04,40.74],[25.95,40.85],[25.54,40.87],[25.04,41.01],[24.8,40.85],[24.57,40.95],[24.11,40.73],[23.86,40.78],[23.69,40.7],[24,40.39],[24.23,40.32],[24.3,40.13],[24,40.32],[23.7,40.33],[23.99,40.12],[23.99,39.95],[23.68,40.22],[23.4,40.28],[23.34,40.21],[23.7,39.91],[23.36,39.96],[23.3,40.24],[23.03,40.33],[22.82,40.5],[22.91,40.64],[22.58,40.47],[22.66,40.37],[22.55,40.17],[22.93,39.6],[23.1,39.5],[23.34,39.18],[22.94,39.36],[22.85,39.16],[23.07,39.04],[22.77,38.79],[23.32,38.64],[23.35,38.5],[23.52,38.49],[23.64,38.42],[23.64,38.53],[23.2,38.83],[22.97,38.89],[23.3,39.04],[23.59,38.77],[24.07,38.68],[24.23,38.52],[24.19,38.41],[24.35,38.16],[24.59,38.16],[24.55,37.98],[24.37,37.97],[24.02,38.33],[24.04,38.39],[23.64,38.42],[24.08,38.17],[23.99,38.12],[24.08,37.75],[24.03,37.65],[23.77,37.82],[23.58,38.05],[23.16,37.94],[23.01,37.85],[23.18,37.81],[23.19,37.61],[23.52,37.44],[23.07,37.36],[23.13,37.45],[22.72,37.54],[23.11,36.78],[23.02,36.72],[23.2,36.43],[22.82,36.66],[22.76,36.8],[22.58,36.78],[22.51,36.47],[22.35,36.51],[22.36,36.7],[22.15,37.02],[21.94,36.98],[21.88,36.73],[21.71,36.82],[21.57,37.16],[21.68,37.38],[21.55,37.56],[21.12,37.84],[21.37,38.12],[21.38,38.22],[21.6,38.15],[21.76,38.3],[21.95,38.34],[22.36,38.16],[22.85,38.04],[23.08,38.06],[23.21,38.16],[22.69,38.32],[21.85,38.39],[21.52,38.3],[21.37,38.41],[21.16,38.3],[21.09,38.54],[20.82,38.92],[21.03,38.93],[21.06,39.04],[20.69,39.07],[20.37,39.29],[20.13,39.53],[20.18,39.62],[20,39.69],[20.2,39.65]]],[[[23.05,36.13],[22.91,36.21],[22.93,36.36],[23.01,36.31],[23.05,36.13]]],[[[24.53,38.8],[24.49,38.98],[24.68,38.81],[24.53,38.8]]],[[[20.81,37.65],[20.62,37.82],[20.68,37.93],[20.9,37.79],[20.81,37.65]]],[[[20.51,38.11],[20.49,38.31],[20.57,38.47],[20.8,38.13],[20.73,38.06],[20.51,38.11]]],[[[20.69,38.85],[20.72,38.64],[20.59,38.62],[20.69,38.85]]],[[[20.1,39.36],[19.87,39.47],[19.63,39.75],[19.85,39.82],[19.93,39.48],[20.09,39.43],[20.1,39.36]]],[[[24.78,40.62],[24.52,40.64],[24.64,40.8],[24.79,40.73],[24.78,40.62]]],[[[26.23,37.57],[25.98,37.55],[26.07,37.64],[26.36,37.69],[26.23,37.57]]],[[[26.86,37.64],[26.58,37.74],[26.84,37.81],[27.05,37.73],[26.86,37.64]]],[[[26.16,38.3],[26.01,38.16],[25.87,38.26],[25.99,38.34],[25.85,38.58],[26.16,38.54],[26.16,38.3]]],[[[26.42,38.97],[26.17,39.02],[25.84,39.18],[25.86,39.26],[26.34,39.38],[26.61,39.05],[26.42,38.97]]],[[[25.35,39.79],[25.2,39.89],[25.05,39.84],[25.03,39.99],[25.29,39.96],[25.45,40.04],[25.35,39.79]]],[[[28.06,36.12],[27.78,35.89],[27.68,36.16],[27.9,36.34],[28.24,36.43],[28.06,36.12]]],[[[27.35,36.86],[26.92,36.72],[27.28,36.91],[27.35,36.86]]],[[[25.59,37.1],[25.45,36.92],[25.34,37.08],[25.53,37.2],[25.59,37.1]]],[[[24.92,37.72],[24.68,37.93],[24.95,37.91],[24.99,37.77],[24.92,37.72]]],[[[26.29,35.14],[26.15,35],[25.98,35.04],[25.1,34.94],[24.74,34.93],[24.71,35.1],[24.4,35.19],[24.03,35.2],[23.52,35.29],[23.6,35.61],[23.72,35.51],[24.18,35.59],[24.27,35.37],[24.97,35.43],[25.05,35.36],[25.48,35.3],[25.77,35.34],[25.82,35.12],[26.32,35.32],[26.29,35.14]]]]}}
