{"type":"Feature","properties":{"zoneName":"HR","countryKey":"HR","countryName":"Croatia"},"geometry":{"type":"MultiPolygon","coordinates":[[[[19.02,44.86],[19.06,45.15],[19.39,45.17],[19.36,45.25],[19,45.37],[19.02,45.57],[18.85,45.81],[18.9,45.93],[18.68,45.91],[18.41,45.74],[17.87,45.77],[17.59,45.94],[17.35,45.96],[17.2,46.12],[16.98,46.21],[16.86,46.36],[16.52,46.5],[16.23,46.49],[16.28,46.38],[15.66,46.22],[15.67,45.83],[15.25,45.71],[15.36,45.48],[15.14,45.43],[14.67,45.53],[14.56,45.66],[14.37,45.48],[13.97,45.51],[13.89,45.42],[13.51,45.51],[13.61,45.12],[13.96,44.81],[14.16,45],[14.33,45.35],[14.58,45.29],[14.83,45.11],[14.92,44.96],[14.9,44.69],[15.31,44.35],[15.11,44.27],[15.47,43.92],[15.93,43.68],[15.98,43.5],[16.34,43.55],[16.88,43.41],[17.07,43.24],[17.58,42.94],[17.71,42.97],[17.64,43.09],[17.43,43.18],[17.24,43.48],[17.06,43.53],[16.72,43.83],[16.22,44.21],[16.21,44.36],[15.9,44.72],[15.74,44.79],[15.79,45.19],[15.82,45.21],[16,45.22],[16.21,45.03],[16.35,45.02],[16.48,45.2],[16.79,45.18],[16.93,45.28],[17.19,45.15],[17.74,45.13],[17.8,45.08],[18.14,45.1],[18.45,45.09],[18.49,45.06],[18.54,45.09],[18.69,45.08],[18.84,44.86],[19.02,44.86]]],[[[17.65,42.89],[17.24,43.02],[17.44,42.87],[17.81,42.81],[18.5,42.42],[18.44,42.56],[18.37,42.57],[17.65,42.89]]],[[[17.13,42.97],[16.64,42.93],[17.2,42.92],[17.13,42.97]]],[[[16.69,43.13],[16.52,43.23],[16.37,43.2],[16.69,43.13]]],[[[16.5,43.28],[16.89,43.31],[16.43,43.39],[16.5,43.28]]],[[[14.88,44.56],[14.9,44.49],[15.26,44.34],[14.9,44.61],[14.88,44.56]]],[[[14.51,44.66],[14.47,44.98],[14.3,44.94],[14.43,44.66],[14.51,44.66]]],[[[14.72,44.94],[14.82,44.98],[14.56,45.25],[14.42,45.09],[14.72,44.94]]]]}}
