{"type":"Feature","properties":{"zoneName":"HU","countryKey":"HU","countryName":"Hungary"},"geometry":{"type":"MultiPolygon","coordinates":[[[[16.09,46.86],[16.27,46.86],[16.52,46.5],[16.86,46.36],[16.98,46.21],[17.2,46.12],[17.35,45.96],[17.59,45.94],[17.87,45.77],[18.41,45.74],[18.68,45.91],[18.9,45.93],[19.06,46.01],[19.26,45.98],[19.55,46.16],[19.93,46.16],[20.24,46.11],[20.61,46.13],[20.84,46.27],[21.13,46.28],[21.32,46.62],[21.5,46.72],[21.63,47.02],[21.77,47.11],[21.99,47.49],[22.26,47.72],[22.75,47.83],[22.88,47.95],[22.75,48.12],[22.6,48.1],[22.36,48.24],[22.27,48.4],[22.13,48.41],[21.73,48.34],[21.43,48.56],[21.11,48.49],[20.78,48.57],[20.48,48.53],[20.32,48.28],[19.88,48.13],[19.62,48.23],[19.48,48.11],[18.84,48.04],[18.82,47.83],[18.24,47.75],[17.83,47.75],[17.57,47.83],[17.34,48],[17.15,48.01],[17,47.86],[17.08,47.71],[16.8,47.68],[16.61,47.75],[16.41,47.66],[16.63,47.62],[16.64,47.45],[16.43,47.35],[16.49,47],[16.27,47],[16.09,46.86]]]]}}
