{"type":"Feature","properties":{"zoneName":"IE","countryKey":"IE","countryName":"Ireland"},"geometry":{"type":"MultiPolygon","coordinates":[[[[-7.25,55.09],[-6.89,55.23],[-7.37,55.4],[-7.56,55.25],[-7.47,55.04],[-7.64,55.27],[-7.86,55.25],[-8.28,55.16],[-8.46,54.94],[-8.33,54.84],[-8.54,54.86],[-8.8,54.7],[-8.67,54.62],[-8.45,54.57],[-8.12,54.65],[-8.27,54.52],[-8.66,54.36],[-8.47,54.28],[-9.05,54.29],[-9.14,54.15],[-9.21,54.3],[-9.34,54.33],[-9.39,54.32],[-9.85,54.35],[-9.84,54.29],[-10.03,54.31],[-10.12,54.24],[-10.14,54.07],[-10.06,54.09],[-10.01,54.22],[-9.97,54.07],[-9.88,54.01],[-10.05,54.03],[-10.26,53.98],[-10.2,53.96],[-10.07,53.96],[-10.03,53.89],[-9.91,53.86],[-9.64,53.89],[-9.64,53.78],[-9.91,53.76],[-9.86,53.62],[-10.18,53.56],[-10.02,53.39],[-9.73,53.21],[-9.61,53.24],[-8.94,53.27],[-8.94,53.15],[-9.27,53.15],[-9.48,52.94],[-9.35,52.93],[-9.5,52.75],[-9.94,52.55],[-9.69,52.58],[-9.7,52.61],[-9.54,52.63],[-9.3,52.59],[-9.15,52.62],[-9,52.76],[-8.96,52.65],[-9.27,52.58],[-9.62,52.58],[-9.68,52.48],[-9.95,52.41],[-9.87,52.23],[-10.17,52.29],[-10.46,52.18],[-10.46,52.1],[-9.91,52.13],[-10.27,51.99],[-10.34,51.94],[-10.45,51.91],[-10.35,51.78],[-10.19,51.84],[-10.23,51.78],[-10.13,51.73],[-10.09,51.76],[-9.74,51.84],[-9.99,51.73],[-10.25,51.58],[-9.85,51.62],[-9.52,51.73],[-9.85,51.54],[-9.55,51.61],[-9.83,51.48],[-9.82,51.45],[-9.4,51.55],[-9.52,51.42],[-9.23,51.48],[-9,51.56],[-8.91,51.54],[-8.85,51.6],[-8.7,51.58],[-8.33,51.72],[-8.25,51.8],[-8.13,51.78],[-7.86,51.88],[-7.89,51.92],[-7.59,51.99],[-7.44,52.13],[-6.93,52.12],[-6.8,52.19],[-6.61,52.16],[-6.37,52.18],[-6.28,52.24],[-6.35,52.35],[-6.21,52.55],[-6.22,52.67],[-6,52.96],[-6.04,53.39],[-6.09,53.58],[-6.22,53.65],[-6.24,53.86],[-6.35,54],[-6.15,53.97],[-6.11,54],[-6.27,54.1],[-6.05,54.02],[-5.84,54.13],[-5.89,54.21],[-5.64,54.22],[-5.4,54.46],[-5.7,54.84],[-6.05,55.2],[-6.15,55.23],[-6.43,55.26],[-6.73,55.2],[-6.95,55.18],[-7.12,55.06],[-7.25,55.09]]]]}}
