{"type":"Feature","properties":{"zoneName":"IT-CAL","countryName":"Italy"},"geometry":{"type":"Polygon","coordinates":[[[16.561,38.416],[16.306,38.277],[16.169,38.143],[16.111,37.974],[16.063,37.933],[15.761,37.925],[15.646,37.988],[15.633,38.22],[15.813,38.301],[15.918,38.517],[15.9,38.578],[15.835,38.628],[15.844,38.66],[16.003,38.725],[16.153,38.731],[16.201,38.776],[16.222,38.857],[16.215,38.919],[16.154,38.955],[16.083,39.075],[15.995,39.439],[15.876,39.551],[15.806,39.696],[15.782,39.869],[15.746,39.925],[15.841,40.004],[15.904,39.986],[15.946,40.006],[15.982,39.979],[16.021,39.987],[16.011,39.954],[16.069,39.907],[16.263,39.942],[16.358,39.902],[16.344,39.935],[16.427,40.137],[16.64,40.119],[16.597,40.047],[16.632,39.966],[16.492,39.805],[16.516,39.69],[16.625,39.625],[16.782,39.612],[16.846,39.553],[17.159,39.406],[17.115,39.283],[17.146,39.211],[17.125,39.091],[17.158,39.04],[17.206,39.029],[17.104,38.899],[17.095,38.919],[17.022,38.906],[16.935,38.939],[16.728,38.879],[16.586,38.798],[16.535,38.7],[16.577,38.529],[16.561,38.416]]]}}
