{"type":"Feature","properties":{"zoneName":"IT-CSO","countryName":"Italy"},"geometry":{"type":"MultiPolygon","coordinates":[[[[13.882,40.7],[13.849,40.715],[13.863,40.762],[13.966,40.735],[13.945,40.702],[13.882,40.7]]],[[[15.535,40.078],[15.43,40],[15.361,39.999],[15.314,40.034],[15.261,40.029],[15.263,40.074],[15.127,40.17],[15.047,40.169],[14.911,40.242],[14.932,40.334],[14.994,40.358],[14.998,40.398],[14.862,40.607],[14.782,40.67],[14.613,40.646],[14.544,40.614],[14.487,40.633],[14.343,40.571],[14.338,40.624],[14.476,40.695],[14.474,40.73],[14.294,40.839],[14.224,40.831],[14.203,40.801],[14.096,40.834],[14.083,40.784],[14.048,40.79],[14.021,40.922],[13.918,41.024],[13.852,41.147],[13.722,41.252],[13.594,41.253],[13.564,41.238],[13.575,41.208],[13.534,41.208],[13.286,41.296],[13.068,41.222],[12.894,41.399],[12.654,41.466],[12.635,41.447],[12.448,41.631],[12.327,41.711],[12.239,41.736],[12.147,41.903],[11.935,42.031],[11.827,42.034],[11.658,42.279],[11.451,42.374],[11.493,42.433],[11.602,42.447],[11.608,42.487],[11.566,42.516],[11.588,42.566],[11.671,42.577],[11.787,42.651],[11.807,42.743],[11.75,42.806],[11.808,42.813],[11.95,42.889],[11.932,42.927],[11.978,43.046],[11.964,43.073],[11.928,43.076],[11.945,43.168],[12.01,43.197],[12.037,43.255],[12.097,43.246],[12.213,43.291],[12.198,43.319],[12.139,43.3],[12.133,43.357],[12.037,43.417],[12.131,43.477],[12.098,43.518],[12.205,43.617],[12.286,43.592],[12.355,43.621],[12.357,43.58],[12.309,43.552],[12.393,43.522],[12.427,43.538],[12.488,43.522],[12.605,43.43],[12.758,43.461],[12.746,43.379],[12.851,43.209],[12.834,43.143],[12.893,43.094],[12.907,42.972],[12.977,42.887],[12.989,42.916],[13.049,42.918],[13.15,42.824],[13.234,42.844],[13.249,42.768],[13.203,42.76],[13.194,42.735],[13.268,42.745],[13.338,42.688],[13.412,42.695],[13.49,42.744],[13.536,42.811],[13.665,42.811],[13.719,42.863],[13.906,42.902],[13.98,42.73],[14.075,42.599],[14.56,42.226],[14.709,42.175],[14.73,42.099],[14.763,42.078],[14.748,42.018],[14.647,41.948],[14.515,41.786],[14.448,41.767],[14.431,41.84],[14.276,41.905],[14.192,41.84],[14.149,41.835],[14.183,41.763],[14.001,41.687],[13.946,41.688],[14.009,41.553],[13.962,41.471],[14.031,41.398],[14.104,41.39],[14.08,41.448],[14.121,41.496],[14.223,41.495],[14.588,41.37],[14.659,41.403],[14.74,41.407],[14.78,41.445],[14.827,41.426],[14.995,41.482],[15.097,41.426],[15.075,41.33],[15.143,41.275],[15.187,41.287],[15.266,41.242],[15.203,41.153],[15.28,41.104],[15.406,41.106],[15.559,41.055],[15.578,41.011],[15.537,40.933],[15.471,40.902],[15.369,40.899],[15.344,40.821],[15.386,40.718],[15.488,40.662],[15.447,40.602],[15.518,40.565],[15.543,40.478],[15.701,40.38],[15.717,40.318],[15.791,40.252],[15.698,40.169],[15.647,40.047],[15.624,40.078],[15.535,40.078]],[[12.453,41.903],[12.454,41.903],[12.454,41.904],[12.453,41.904],[12.453,41.903]]],[[[13.419,40.796],[13.424,40.8],[13.432,40.801],[13.427,40.791],[13.415,40.786],[13.419,40.796]]],[[[12.44,43.594],[12.409,43.601],[12.424,43.631],[12.44,43.594]]]]}}
