{"type":"Feature","properties":{"zoneName":"IT-CNO","countryName":"Italy"},"geometry":{"type":"MultiPolygon","coordinates":[[[[10.32,42.34],[10.31,42.32],[10.29,42.33],[10.32,42.34]]],[[[10.87,42.35],[10.86,42.37],[10.9,42.39],[10.94,42.33],[10.92,42.32],[10.87,42.35]]],[[[10.06,42.58],[10.08,42.61],[10.1,42.58],[10.06,42.58]]],[[[10.41,42.77],[10.39,42.76],[10.43,42.74],[10.42,42.71],[10.35,42.76],[10.31,42.74],[10.3,42.76],[10.27,42.74],[10.25,42.76],[10.24,42.74],[10.12,42.74],[10.1,42.78],[10.16,42.82],[10.27,42.8],[10.27,42.83],[10.33,42.83],[10.32,42.81],[10.35,42.81],[10.42,42.87],[10.44,42.8],[10.41,42.77]]],[[[9.8,43.01],[9.78,43.03],[9.81,43.07],[9.84,43.07],[9.84,43.02],[9.8,43.01]]],[[[13.76,42.87],[13.71,42.86],[13.66,42.81],[13.53,42.81],[13.49,42.74],[13.44,42.73],[13.43,42.7],[13.34,42.69],[13.28,42.74],[13.19,42.73],[13.26,42.79],[13.23,42.85],[13.15,42.82],[13.05,42.92],[12.99,42.92],[12.97,42.89],[12.97,42.92],[12.91,42.96],[12.9,43.09],[12.83,43.14],[12.86,43.19],[12.75,43.37],[12.76,43.46],[12.69,43.43],[12.6,43.43],[12.49,43.52],[12.44,43.54],[12.38,43.52],[12.31,43.55],[12.31,43.57],[12.36,43.58],[12.36,43.62],[12.29,43.59],[12.2,43.62],[12.14,43.53],[12.1,43.52],[12.13,43.47],[12.04,43.43],[12.04,43.41],[12.08,43.41],[12.07,43.38],[12.14,43.35],[12.14,43.3],[12.2,43.32],[12.22,43.29],[12.09,43.24],[12.04,43.26],[12,43.19],[11.94,43.17],[11.93,43.06],[11.98,43.06],[11.93,42.93],[11.95,42.88],[11.81,42.81],[11.75,42.81],[11.81,42.74],[11.79,42.65],[11.76,42.65],[11.68,42.58],[11.59,42.57],[11.57,42.51],[11.61,42.49],[11.61,42.46],[11.59,42.44],[11.48,42.43],[11.45,42.37],[11.38,42.41],[11.26,42.42],[11.21,42.42],[11.18,42.37],[11.15,42.37],[11.09,42.4],[11.09,42.43],[11.18,42.46],[11.17,42.55],[11.13,42.56],[10.98,42.72],[10.73,42.8],[10.78,42.89],[10.75,42.93],[10.63,42.96],[10.54,42.95],[10.55,42.93],[10.5,42.94],[10.48,42.99],[10.52,43.02],[10.55,43.15],[10.53,43.25],[10.44,43.39],[10.32,43.49],[10.25,43.85],[10.18,43.96],[10.03,44.05],[10.05,44.1],[9.99,44.12],[9.98,44.16],[9.9,44.16],[9.91,44.2],[9.86,44.19],[9.85,44.26],[9.69,44.37],[9.75,44.39],[9.84,44.48],[9.9,44.48],[9.99,44.45],[9.98,44.41],[10.07,44.35],[10.2,44.32],[10.25,44.27],[10.36,44.27],[10.47,44.22],[10.58,44.12],[10.65,44.16],[10.71,44.16],[10.9,44.07],[10.99,44.14],[11.02,44.14],[11,44.11],[11.04,44.09],[11.23,44.1],[11.26,44.12],[11.21,44.13],[11.2,44.16],[11.29,44.17],[11.33,44.21],[11.43,44.23],[11.48,44.17],[11.61,44.16],[11.6,44.12],[11.75,44.13],[11.7,44.04],[11.65,44.02],[11.71,43.88],[11.81,43.82],[11.88,43.82],[11.97,43.77],[12.07,43.75],[12.16,43.76],[12.19,43.74],[12.29,43.77],[12.28,43.79],[12.34,43.83],[12.35,43.87],[12.41,43.87],[12.48,43.93],[12.54,43.91],[12.56,43.87],[12.59,43.9],[12.63,43.84],[12.67,43.84],[12.73,43.88],[12.75,43.97],[12.8,43.97],[12.93,43.92],[13.25,43.7],[13.47,43.61],[13.52,43.63],[13.62,43.56],[13.85,43.09],[13.91,42.9],[13.76,42.87]],[[12.44,43.63],[12.41,43.62],[12.41,43.59],[12.44,43.59],[12.44,43.63]]],[[[12.24,43.81],[12.2,43.78],[12.17,43.8],[12.18,43.82],[12.24,43.81]]]]}}
