{"type":"Feature","properties":{"zoneName":"IT-NO","countryName":"Italy"},"geometry":{"type":"MultiPolygon","coordinates":[[[[7.557,43.944],[7.69,44.067],[7.642,44.144],[7.656,44.176],[7.331,44.125],[7.145,44.207],[6.983,44.242],[6.874,44.358],[6.877,44.414],[6.918,44.436],[6.861,44.475],[6.836,44.534],[6.946,44.625],[6.96,44.683],[7.055,44.685],[7.005,44.828],[6.933,44.862],[6.847,44.859],[6.745,44.908],[6.723,45.013],[6.652,45.036],[6.603,45.103],[6.736,45.157],[6.844,45.13],[6.959,45.21],[7.03,45.228],[7.055,45.214],[7.108,45.259],[7.093,45.324],[7.161,45.411],[6.983,45.511],[6.963,45.641],[6.816,45.697],[6.782,45.777],[6.801,45.826],[6.949,45.858],[7.008,45.921],[7.09,45.881],[7.184,45.88],[7.287,45.913],[7.394,45.916],[7.541,45.984],[7.643,45.966],[7.706,45.926],[7.831,45.914],[7.898,45.982],[7.986,45.999],[8.025,46.091],[8.111,46.127],[8.13,46.196],[8.073,46.254],[8.087,46.272],[8.282,46.37],[8.316,46.434],[8.399,46.452],[8.442,46.435],[8.438,46.235],[8.51,46.208],[8.612,46.119],[8.809,46.09],[8.834,46.066],[8.768,45.983],[8.871,45.947],[8.912,45.883],[8.9,45.826],[9.002,45.821],[9.063,45.899],[8.981,45.964],[9.016,45.993],[9.002,46.039],[9.059,46.062],[9.072,46.119],[9.225,46.231],[9.275,46.331],[9.238,46.437],[9.282,46.497],[9.351,46.498],[9.385,46.466],[9.435,46.498],[9.444,46.375],[9.536,46.299],[9.674,46.292],[9.72,46.351],[9.768,46.339],[9.918,46.371],[9.964,46.356],[10.043,46.22],[10.076,46.22],[10.159,46.262],[10.092,46.329],[10.141,46.403],[10.026,46.446],[10.033,46.533],[10.088,46.604],[10.192,46.627],[10.234,46.618],[10.235,46.575],[10.295,46.551],[10.444,46.538],[10.459,46.624],[10.396,46.639],[10.369,46.672],[10.429,46.756],[10.417,46.799],[10.454,46.864],[10.528,46.843],[10.647,46.864],[10.739,46.83],[10.723,46.786],[10.997,46.769],[11.053,46.815],[11.092,46.912],[11.174,46.964],[11.314,46.987],[11.411,46.97],[11.472,47.007],[11.746,46.972],[11.9,47.028],[12.181,47.085],[12.204,47.053],[12.111,46.993],[12.127,46.909],[12.267,46.868],[12.269,46.789],[12.343,46.765],[12.405,46.69],[12.547,46.652],[12.74,46.643],[12.83,46.61],[13.146,46.585],[13.231,46.552],[13.478,46.564],[13.701,46.52],[13.677,46.452],[13.6,46.443],[13.53,46.388],[13.434,46.354],[13.365,46.29],[13.41,46.208],[13.437,46.211],[13.423,46.229],[13.637,46.18],[13.616,46.125],[13.505,46.066],[13.462,46.006],[13.509,45.967],[13.606,45.985],[13.623,45.966],[13.566,45.83],[13.779,45.743],[13.895,45.632],[13.848,45.585],[13.712,45.593],[13.73,45.613],[13.808,45.614],[13.739,45.649],[13.754,45.672],[13.726,45.704],[13.574,45.79],[13.524,45.76],[13.555,45.737],[13.402,45.675],[13.377,45.683],[13.425,45.699],[13.423,45.724],[13.369,45.745],[13.216,45.779],[13.15,45.752],[13.119,45.772],[13.123,45.737],[13.081,45.728],[13.075,45.697],[13.15,45.704],[13.085,45.642],[12.944,45.629],[12.781,45.554],[12.41,45.436],[12.451,45.498],[12.515,45.493],[12.582,45.553],[12.537,45.536],[12.507,45.573],[12.442,45.53],[12.451,45.512],[12.404,45.518],[12.397,45.539],[12.384,45.523],[12.424,45.498],[12.35,45.505],[12.273,45.464],[12.216,45.316],[12.154,45.313],[12.181,45.258],[12.197,45.3],[12.217,45.294],[12.23,45.204],[12.266,45.197],[12.307,45.231],[12.328,45.101],[12.307,45.128],[12.297,45.089],[12.341,45.081],[12.369,45.011],[12.369,45.066],[12.486,44.977],[12.503,44.991],[12.534,44.97],[12.445,44.821],[12.438,44.901],[12.407,44.891],[12.416,44.803],[12.376,44.792],[12.303,44.843],[12.266,44.827],[12.247,44.712],[12.286,44.603],[12.284,44.488],[12.369,44.251],[12.511,44.115],[12.661,44.008],[12.754,43.972],[12.741,43.898],[12.68,43.845],[12.627,43.844],[12.588,43.895],[12.555,43.875],[12.483,43.929],[12.482,43.983],[12.396,43.948],[12.42,43.878],[12.351,43.87],[12.286,43.769],[12.18,43.743],[11.969,43.773],[11.709,43.885],[11.651,44.013],[11.72,44.07],[11.741,44.132],[11.603,44.123],[11.604,44.163],[11.496,44.166],[11.403,44.235],[11.291,44.171],[11.2,44.157],[11.255,44.119],[11.229,44.103],[11.041,44.092],[10.991,44.14],[10.919,44.068],[10.707,44.162],[10.582,44.123],[10.484,44.187],[10.471,44.225],[10.4,44.236],[10.351,44.275],[10.249,44.27],[10.194,44.321],[10.073,44.352],[9.991,44.407],[9.99,44.448],[9.866,44.483],[9.687,44.364],[9.852,44.253],[9.859,44.188],[9.902,44.2],[9.899,44.166],[9.968,44.16],[9.99,44.118],[10.053,44.1],[10.029,44.049],[9.963,44.045],[9.845,44.109],[9.82,44.093],[9.848,44.072],[9.832,44.042],[9.484,44.244],[9.437,44.239],[9.231,44.354],[9.211,44.305],[9.102,44.374],[8.762,44.432],[8.466,44.304],[8.408,44.194],[8.257,44.128],[8.153,43.983],[8.168,43.956],[8.056,43.892],[7.737,43.798],[7.531,43.784],[7.502,43.792],[7.478,43.866],[7.557,43.944]],[[12.239,43.799],[12.178,43.822],[12.19,43.783],[12.239,43.799]]],[[[12.376,45.423],[12.321,45.348],[12.372,45.425],[12.431,45.416],[12.376,45.423]]],[[[12.33,45.459],[12.364,45.45],[12.337,45.427],[12.33,45.459]]]]}}
