{"type":"Feature","properties":{"zoneName":"IT-SAR","countryKey":"IT","countryName":"Italy"},"geometry":{"type":"MultiPolygon","coordinates":[[[[8.609,38.954],[8.854,38.878],[9.016,38.99],[9.077,39.212],[9.556,39.14],[9.733,40.083],[9.628,40.225],[9.826,40.52],[9.513,41.016],[9.567,41.119],[9.232,41.263],[8.811,40.941],[8.519,40.828],[8.231,40.911],[8.134,40.729],[8.163,40.564],[8.311,40.579],[8.491,40.105],[8.397,39.906],[8.545,39.879],[8.548,39.698],[8.447,39.763],[8.372,39.23],[8.609,38.954]]]]}}
