{"type":"Feature","properties":{"zoneName":"IT-SIC","countryKey":"IT","countryName":"Italy"},"geometry":{"type":"MultiPolygon","coordinates":[[[[12.894,37.573],[13.174,37.487],[13.452,37.299],[13.894,37.101],[14.038,37.114],[14.334,37.001],[14.488,36.793],[14.78,36.699],[15,36.702],[15.176,36.944],[15.331,37.012],[15.093,37.359],[15.259,37.808],[15.583,38.24],[15.514,38.297],[15.09,38.129],[14.906,38.187],[14.636,38.081],[13.79,37.974],[13.39,38.103],[13.318,38.22],[13.102,38.19],[12.976,38.044],[12.724,38.126],[12.505,38.011],[12.429,37.809],[12.66,37.565],[12.894,37.573]]]]}}
