{"type":"Feature","properties":{"zoneName":"IT-SO","countryName":"Italy"},"geometry":{"type":"Polygon","coordinates":[[[16.76,40.27],[16.74,40.21],[16.64,40.12],[16.45,40.12],[16.43,40.14],[16.39,40],[16.34,39.94],[16.36,39.9],[16.31,39.94],[16.23,39.94],[16.2,39.91],[16.05,39.91],[16.01,39.95],[16.02,39.99],[15.97,39.98],[15.95,40.01],[15.91,39.99],[15.85,40.01],[15.75,39.92],[15.65,40.04],[15.65,40.08],[15.69,40.16],[15.78,40.22],[15.79,40.27],[15.71,40.32],[15.69,40.39],[15.59,40.43],[15.53,40.49],[15.52,40.57],[15.45,40.6],[15.49,40.66],[15.39,40.71],[15.37,40.8],[15.34,40.82],[15.37,40.84],[15.37,40.9],[15.47,40.9],[15.54,40.93],[15.58,41.01],[15.56,41.06],[15.41,41.11],[15.28,41.1],[15.2,41.15],[15.27,41.24],[15.19,41.29],[15.14,41.27],[15.12,41.32],[15.07,41.34],[15.1,41.43],[15,41.48],[14.85,41.43],[14.78,41.45],[14.75,41.41],[14.57,41.37],[14.57,41.39],[14.5,41.39],[14.27,41.49],[14.12,41.5],[14.08,41.45],[14.11,41.39],[14.04,41.39],[13.96,41.47],[14.01,41.52],[14.01,41.56],[13.95,41.69],[14.01,41.69],[14.06,41.73],[14.09,41.72],[14.18,41.76],[14.14,41.81],[14.15,41.84],[14.21,41.85],[14.28,41.91],[14.35,41.86],[14.39,41.87],[14.42,41.85],[14.45,41.77],[14.52,41.79],[14.65,41.92],[14.65,41.95],[14.75,42.02],[14.76,42.08],[14.87,42.03],[14.99,42.01],[15.12,41.93],[15.45,41.91],[16.03,41.94],[16.14,41.92],[16.18,41.89],[16.19,41.79],[15.9,41.61],[15.93,41.48],[16.59,41.21],[17.06,41.08],[17.28,40.98],[17.49,40.82],[17.75,40.75],[17.84,40.69],[17.96,40.67],[17.95,40.65],[18.01,40.65],[18.04,40.56],[18.12,40.5],[18.24,40.46],[18.44,40.27],[18.52,40.1],[18.41,39.98],[18.39,39.82],[18.33,39.8],[18.07,39.91],[18,40],[18.02,40.04],[17.97,40.06],[18.01,40.1],[17.92,40.19],[17.91,40.26],[17.86,40.29],[17.51,40.3],[17.21,40.41],[17.25,40.46],[17.23,40.47],[17.3,40.47],[17.32,40.5],[17.19,40.48],[17.17,40.51],[17.05,40.52],[16.91,40.45],[16.76,40.27]]]}}
