{"type":"Feature","properties":{"zoneName":"LT","countryKey":"LT","countryName":"Lithuania"},"geometry":{"type":"MultiPolygon","coordinates":[[[[26.595,55.666],[26.278,55.744],[26.178,55.85],[25.663,56.14],[25.108,56.183],[24.892,56.439],[24.446,56.26],[24.108,56.26],[23.708,56.355],[23.287,56.373],[23.114,56.31],[22.887,56.408],[22.682,56.351],[22.095,56.418],[21.328,56.225],[21.055,56.073],[21.073,55.745],[21.224,55.52],[21.267,55.249],[22.099,55.03],[22.25,55.071],[22.581,55.058],[22.808,54.894],[22.682,54.453],[22.768,54.356],[22.858,54.399],[23.431,54.17],[23.485,53.939],[23.643,53.899],[24.201,53.952],[24.378,53.886],[24.788,53.969],[24.856,54.147],[25.072,54.132],[25.224,54.258],[25.472,54.297],[25.544,54.137],[25.738,54.147],[25.695,54.321],[25.53,54.346],[25.742,54.569],[25.782,54.869],[26.138,54.97],[26.311,55.144],[26.577,55.118],[26.8,55.273],[26.444,55.337],[26.595,55.666]]]]}}
