{"type": "Feature", "properties": {"zoneName": "LU", "countryKey": "LU", "countryName": "Luxembourg"}, "geometry": {"type": "MultiPolygon", "coordinates": [[[[5.790657906579099, 49.537121074934916], [5.959859598596012, 49.44123852512671], [6.345063450634541, 49.45554935345629], [6.499864998649997, 49.79471598486741], [6.222662226622305, 49.8877363690097], [6.11826118261186, 50.12100287078191], [5.99945999459996, 50.17538401843433], [5.715057150571539, 49.88201203767787], [5.884258842588451, 49.64302120457383], [5.790657906579099, 49.537121074934916]]]]}}