{"type":"Feature","properties":{"zoneName":"LV","countryKey":"LV","countryName":"Latvia"},"geometry":{"type":"MultiPolygon","coordinates":[[[[28.156,56.161],[28.165,56.438],[27.917,56.813],[27.661,56.84],[27.861,57.284],[27.351,57.528],[26.872,57.627],[26.498,57.515],[26.026,57.774],[26.001,57.846],[25.602,57.912],[25.263,58.075],[24.306,57.869],[24.406,57.345],[24.378,57.231],[23.953,57.013],[23.694,56.967],[23.251,57.115],[23.128,57.371],[22.657,57.586],[22.585,57.76],[21.998,57.6],[21.699,57.555],[21.422,57.289],[21.4,57.037],[21.066,56.846],[20.968,56.253],[21.055,56.073],[21.328,56.225],[22.095,56.418],[22.682,56.351],[22.887,56.408],[23.114,56.31],[23.287,56.373],[23.708,56.355],[24.108,56.26],[24.446,56.26],[24.892,56.439],[25.108,56.183],[25.663,56.14],[26.178,55.85],[26.278,55.744],[26.595,55.666],[26.822,55.707],[26.98,55.827],[27.592,55.794],[27.646,55.923],[27.913,56.1],[28.156,56.161]]]]}}
