{"type":"Feature","properties":{"zoneName":"MD","countryKey":"MD","countryName":"Moldova, Republic of"},"geometry":{"type":"MultiPolygon","coordinates":[[[[26.62,48.26],[27,48.17],[27.17,47.97],[27.3,47.67],[27.56,47.47],[27.8,47.14],[28.03,47.03],[28.23,46.66],[28.25,46.43],[28.09,46],[28.2,45.46],[28.48,45.5],[28.47,45.66],[28.74,45.84],[28.76,45.96],[28.96,46],[29.01,46.18],[28.95,46.45],[29.16,46.54],[29.2,46.36],[29.46,46.48],[29.6,46.36],[29.71,46.47],[29.85,46.34],[30.08,46.37],[29.91,46.52],[29.93,46.81],[29.56,46.95],[29.56,47.32],[29.41,47.28],[29.12,47.53],[29.24,47.87],[29.12,47.98],[28.95,47.93],[28.8,48.11],[28.37,48.23],[28.08,48.24],[27.75,48.45],[27.5,48.47],[27.17,48.36],[26.84,48.39],[26.62,48.26]]]]}}
