{"type":"Feature","properties":{"zoneName":"ME","countryKey":"ME","countryName":"Montenegro"},"geometry":{"type":"MultiPolygon","coordinates":[[[[20.065,42.546],[20.025,42.724],[20.346,42.827],[19.928,43.114],[19.618,43.169],[19.194,43.532],[18.906,43.491],[19.071,43.309],[18.992,43.268],[18.898,43.352],[18.664,43.233],[18.639,43.02],[18.452,42.993],[18.517,42.604],[18.438,42.559],[18.495,42.416],[18.654,42.452],[19.366,41.852],[19.4,42.104],[19.282,42.181],[19.698,42.655],[19.82,42.466],[20.065,42.546]]]]}}
