{"type":"Feature","properties":{"zoneName":"MK","countryKey":"MK","countryName":"North Macedonia"},"geometry":{"type":"MultiPolygon","coordinates":[[[[20.965,40.849],[21.26,40.86],[21.429,40.909],[21.764,40.923],[21.897,41.081],[22.207,41.161],[22.423,41.115],[22.66,41.172],[22.747,41.152],[22.75,41.316],[22.826,41.341],[22.916,41.336],[23.01,41.716],[22.844,42.014],[22.531,42.128],[22.261,42.369],[21.562,42.246],[21.238,42.097],[21.098,42.196],[20.767,42.064],[20.749,41.907],[20.569,41.874],[20.443,41.55],[20.576,41.094],[20.767,40.893],[20.965,40.849]]]]}}
