{"type":"Feature","properties":{"zoneName":"NL","countryKey":"NL","countryName":"Netherlands"},"geometry":{"type":"MultiPolygon","coordinates":[[[[6,50.75],[6.06,50.91],[5.92,51.03],[6.15,51.15],[6.06,51.23],[6.21,51.39],[6.1,51.65],[5.93,51.81],[6.13,51.9],[6.38,51.83],[6.81,51.96],[6.68,52.03],[7.03,52.23],[6.98,52.45],[6.69,52.48],[6.77,52.64],[7.04,52.65],[7.18,52.97],[7.19,53.25],[6.73,53.46],[5.98,53.41],[5.59,53.3],[5.38,53.1],[5.36,52.87],[5.6,52.77],[5.58,52.6],[5.13,52.39],[5.05,52.57],[5.31,52.7],[5.28,52.75],[5.15,52.75],[5.03,52.94],[4.91,52.91],[4.75,52.97],[4.51,52.34],[3.96,51.85],[4.18,51.69],[3.99,51.59],[4.24,51.52],[4.13,51.44],[3.83,51.61],[3.46,51.55],[3.54,51.46],[3.83,51.39],[3.94,51.45],[4.26,51.37],[4.48,51.47],[4.76,51.5],[4.91,51.39],[5.01,51.47],[5.21,51.26],[5.47,51.29],[5.83,51.16],[5.66,50.81],[5.73,50.76],[6,50.75]]],[[[4.22,51.37],[3.98,51.41],[3.86,51.35],[3.54,51.42],[3.35,51.37],[3.39,51.25],[3.63,51.29],[3.93,51.21],[4.22,51.37]]],[[[4.04,51.69],[3.69,51.73],[3.98,51.62],[4.04,51.69]]]]}}
