{"type":"Feature","properties":{"zoneName":"NO-NO2","countryKey":"NO","countryName":"Norway"},"geometry":{"type":"MultiPolygon","coordinates":[[[[5.28,59.29],[5.21,59.42],[5.17,59.2],[5.28,59.29]]],[[[5.54,59.78],[5.54,59.88],[5.39,59.97],[5.19,59.91],[5.07,59.92],[5.06,59.8],[5.18,59.56],[5.34,59.68],[5.54,59.78]]],[[[5.75,60.07],[5.46,60.05],[5.36,60.09],[5.36,60.01],[5.53,59.91],[5.58,59.81],[5.75,60.07]]],[[[8.13,60.18],[7.82,60.1],[7.66,60.13],[7.49,60.1],[7.43,60.02],[7.24,59.97],[7.09,59.78],[6.69,59.7],[6.67,59.86],[6.32,59.78],[6.16,59.59],[5.81,59.63],[5.49,59.74],[5.18,59.51],[5.47,59.28],[5.59,59.42],[5.67,59.3],[6.08,59.4],[6.25,59.28],[5.87,59.09],[6.04,58.9],[5.74,58.93],[5.55,59.04],[5.48,58.75],[5.7,58.52],[6,58.39],[6.7,58.23],[6.53,58.12],[7,58.03],[7.58,58.02],[7.91,58.08],[8.03,58.23],[8.12,58.1],[8.69,58.34],[8.74,58.41],[8.85,58.43],[9.02,58.59],[9.23,58.66],[9.21,58.74],[9.37,58.75],[9.62,58.97],[9.68,59.42],[8.84,60.16],[8.13,60.18]]]]}}
