{"type":"Feature","properties":{"zoneName":"NO-NO4","countryKey":"NO","countryName":"Norway"},"geometry":{"type":"MultiPolygon","coordinates":[[[[29.042,69.011],[29.241,69.116],[29.335,69.277],[29.9,69.358],[30.123,69.442],[30.296,69.621],[30.512,69.537],[30.854,69.528],[30.926,69.672],[30.84,69.806],[30.167,69.88],[30.21,69.784],[30.001,69.725],[29.68,69.735],[29.684,69.97],[28.611,70.12],[28.755,70.168],[29.227,70.12],[30.159,70.072],[30.548,70.249],[31.077,70.285],[30.926,70.457],[30.811,70.415],[29.994,70.713],[29.68,70.62],[29.778,70.727],[29.353,70.696],[29.403,70.784],[29.058,70.885],[28.795,70.873],[28.525,70.721],[28.248,70.415],[27.848,70.482],[28.233,70.616],[28.302,70.703],[27.65,70.607],[28.129,70.736],[27.762,70.792],[28.222,70.786],[28.546,70.98],[28.186,70.996],[28.19,71.086],[27.877,71.038],[27.567,71.098],[27.553,70.955],[27.121,70.922],[27.535,70.846],[27.139,70.74],[27.132,70.626],[26.505,70.362],[26.656,70.64],[26.343,70.648],[26.642,70.707],[26.692,70.956],[26.376,70.869],[26.012,70.626],[25.422,70.325],[25.54,70.298],[25.137,70.079],[24.964,70.08],[24.979,70.229],[25.202,70.306],[25.245,70.528],[25.072,70.504],[25.926,70.856],[25.422,70.86],[25.245,70.792],[25.141,70.922],[24.666,70.978],[24.615,70.78],[24.396,70.867],[24.291,70.764],[24.543,70.746],[24.615,70.626],[24.352,70.691],[24.111,70.548],[24.316,70.482],[23.917,70.51],[23.514,70.365],[23.571,70.291],[23.276,70.225],[23.402,70.14],[23.175,70.092],[23.539,70.025],[23.33,69.949],[23.031,70.03],[22.966,70.208],[22.372,70.251],[22.268,70.295],[21.822,70.269],[21.876,70.148],[21.588,70.312],[21.21,70.209],[21.512,70.092],[21.84,70.055],[21.904,69.826],[21.393,70.029],[21.17,69.876],[20.511,69.77],[20.497,69.578],[20.277,69.392],[20.191,69.413],[20.418,69.89],[20.169,69.942],[19.856,69.627],[19.676,69.681],[19.784,69.804],[19.1,69.737],[18.96,69.561],[19.158,69.378],[19.348,69.379],[19.478,69.22],[19.302,69.225],[19.348,69.345],[19.014,69.398],[18.852,69.552],[18.499,69.522],[18.466,69.445],[18.934,69.335],[18.603,69.3],[18.301,69.486],[18.002,69.286],[18.081,69.169],[17.678,69.091],[17.426,68.9],[17.696,68.891],[17.235,68.757],[16.63,68.642],[16.533,68.439],[17.048,68.435],[17.545,68.53],[17.541,68.429],[16.825,68.324],[16.695,68.406],[16.173,68.317],[16.44,68.226],[16.346,68.083],[16.501,68.017],[16.465,67.899],[16.303,67.994],[16.238,67.884],[16.044,68.03],[16.098,68.173],[15.507,68.133],[15.28,68.037],[15.968,68.008],[15.302,67.891],[15,67.895],[14.791,67.823],[15.014,67.746],[14.838,67.643],[15.385,67.803],[15.597,67.749],[15.198,67.645],[15.266,67.524],[15.007,67.563],[14.726,67.489],[15.05,67.447],[14.823,67.378],[14.654,67.426],[14.33,67.241],[14.683,67.278],[14.676,67.217],[15.165,67.311],[14.899,67.142],[14.78,67.214],[14.362,67.159],[14.222,66.982],[13.588,66.938],[13.801,66.809],[13.542,66.803],[13.48,66.676],[13.25,66.633],[13.171,66.412],[13.002,66.357],[13.322,66.301],[13.03,66.198],[13.574,66.289],[13.974,66.238],[13.527,66.241],[12.868,66.135],[12.714,66.042],[13.023,66.068],[12.789,65.965],[12.35,65.638],[12.404,65.535],[12.573,65.59],[12.642,65.416],[11.82,65.101],[12.698,64.922],[13.094,65.11],[14.326,65.12],[14.38,65.245],[14.504,65.309],[14.496,65.516],[14.536,65.694],[14.625,65.813],[14.518,66.13],[15.037,66.155],[15.485,66.283],[15.372,66.485],[15.624,66.596],[16.036,66.912],[16.389,67.044],[16.407,67.206],[16.1,67.437],[16.157,67.52],[16.414,67.535],[16.739,67.911],[17.186,68.055],[17.284,68.119],[17.894,67.969],[18.154,68.194],[18.105,68.408],[18.128,68.534],[18.411,68.58],[18.621,68.506],[18.985,68.517],[19.925,68.355],[20.223,68.49],[19.943,68.556],[20.206,68.667],[20.338,68.805],[20.307,68.924],[20.065,69.048],[20.549,69.06],[20.716,69.119],[21.06,69.035],[21.107,69.103],[21.003,69.222],[21.278,69.31],[21.627,69.277],[22.177,68.954],[22.19,68.916],[22.34,68.827],[22.375,68.717],[22.534,68.744],[22.791,68.686],[23.041,68.691],[23.197,68.618],[23.733,68.715],[23.928,68.817],[24.662,68.666],[24.907,68.558],[24.982,68.615],[25.134,68.648],[25.202,68.812],[25.602,68.872],[25.728,68.943],[25.8,69.013],[25.749,69.06],[25.735,69.192],[25.879,69.37],[25.886,69.521],[26.034,69.697],[26.181,69.711],[26.502,69.919],[26.707,69.936],[27.099,69.901],[27.445,70.003],[27.898,70.07],[28.381,69.823],[29.148,69.664],[29.346,69.465],[28.852,69.203],[28.808,69.111],[29.042,69.011]]],[[[13.48,68.187],[13.038,68.088],[12.715,67.797],[13.642,68.071],[13.776,68.16],[14.035,68.181],[14.239,68.307],[13.984,68.337],[13.646,68.293],[13.48,68.187]]],[[[12.397,65.508],[12.123,65.358],[12.08,65.215],[12.49,65.388],[12.397,65.508]]],[[[12.735,65.976],[12.472,65.98],[12.494,65.88],[12.735,65.976]]],[[[12.606,66.181],[12.296,66.015],[12.645,66.113],[12.606,66.181]]],[[[14.24,67.115],[13.992,67.078],[14.208,67.009],[14.24,67.115]]],[[[15.154,68.439],[14.654,68.429],[14.384,68.373],[14.496,68.316],[14.197,68.153],[14.762,68.259],[15.154,68.439]]],[[[16.404,68.429],[16.342,68.538],[16.094,68.397],[16.404,68.429]]],[[[14.762,68.495],[15,68.555],[14.604,68.559],[14.762,68.495]]],[[[17.106,68.758],[17.016,68.86],[16.843,68.725],[17.106,68.758]]],[[[15.907,68.957],[15.644,68.954],[15.453,68.811],[15.514,68.636],[15.237,68.565],[15.27,68.462],[15.01,68.314],[15.36,68.354],[15.626,68.3],[15.748,68.426],[15.968,68.393],[16.094,68.533],[16.483,68.548],[16.576,68.708],[16.256,68.903],[16.108,68.741],[15.817,68.611],[15.99,68.764],[15.864,68.782],[15.907,68.957]]],[[[15.194,68.934],[15.007,68.981],[15.007,68.794],[14.37,68.688],[15.064,68.579],[15.338,68.654],[15.295,68.907],[15.194,68.934]]],[[[15.817,69.024],[16.062,69.144],[16.101,69.315],[15.568,69.106],[15.424,68.963],[15.817,69.024]]],[[[17.736,69.552],[17.646,69.462],[17.318,69.535],[17.39,69.381],[16.94,69.398],[17.131,69.31],[16.9,69.194],[17.055,69.133],[16.825,69.054],[17.487,69.154],[17.959,69.18],[17.905,69.319],[18.085,69.352],[18.049,69.496],[17.736,69.552]]],[[[18.841,69.879],[18.79,69.784],[18.358,69.793],[18.186,69.708],[18.193,69.531],[18.823,69.591],[18.805,69.681],[19.035,69.744],[18.841,69.879]]],[[[30.023,69.837],[29.878,69.914],[29.713,69.764],[30.023,69.837]]],[[[19.676,69.856],[19.856,69.973],[19.532,69.92],[19.676,69.856]]],[[[19.222,70.073],[18.729,69.947],[19.122,69.788],[19.406,69.838],[19.582,69.993],[19.222,70.073]]],[[[20.77,70.116],[20.824,70.195],[20.587,70.236],[20.389,70.103],[20.587,70.046],[20.77,70.116]]],[[[19.204,70.255],[18.996,70.152],[19.226,70.135],[19.204,70.255]]],[[[19.701,70.251],[19.82,70.06],[20.155,70.113],[19.816,70.169],[19.701,70.251]]],[[[22.693,70.385],[22.444,70.292],[23.002,70.249],[22.693,70.385]]],[[[23.503,70.617],[22.898,70.451],[23.103,70.284],[23.38,70.318],[23.661,70.47],[23.503,70.617]]],[[[23.82,70.71],[23.64,70.703],[23.751,70.524],[24.129,70.62],[23.82,70.71]]],[[[23.395,70.843],[23.33,70.779],[22.826,70.648],[22.372,70.699],[22.012,70.6],[22.333,70.613],[22.142,70.482],[22.869,70.54],[23.272,70.681],[23.395,70.843]]],[[[25.677,71.161],[25.292,71.045],[25.533,70.932],[26.181,71.003],[25.89,71.052],[25.677,71.161]]]]}}
