{"type":"Feature","properties":{"zoneName":"NO-NO3","countryKey":"NO","countryName":"Norway"},"geometry":{"type":"MultiPolygon","coordinates":[[[[11.249,62.535],[11.415,62.476],[11.555,62.374],[11.674,62.379],[11.731,62.35],[11.768,62.38],[12.041,62.353],[12.14,62.313],[12.256,62.329],[12.057,62.611],[12.137,62.749],[12.075,62.902],[12.218,63.001],[11.973,63.267],[12.213,63.477],[12.151,63.591],[12.727,64.008],[13.2,64.097],[13.976,64.007],[14.156,64.195],[14.11,64.463],[13.642,64.589],[14.327,65.12],[13.094,65.11],[12.698,64.922],[11.676,65.129],[11.496,65.075],[11.48,64.951],[11.083,64.869],[11.188,64.685],[10.957,64.604],[10.892,64.475],[10.604,64.452],[10.608,64.366],[10.168,64.199],[9.938,63.96],[10.197,63.938],[9.545,63.775],[9.545,63.666],[9.797,63.692],[9.92,63.515],[10.417,63.579],[10.91,63.731],[11.076,63.837],[10.964,63.948],[11.263,64.035],[11.497,64.021],[11.097,63.889],[11.464,63.802],[11.032,63.719],[10.672,63.549],[10.917,63.466],[10.798,63.417],[10.302,63.466],[10.093,63.439],[10.1,63.326],[9.833,63.328],[9.96,63.427],[9.7,63.645],[9.16,63.507],[9.265,63.363],[8.822,63.43],[8.476,63.294],[7.844,63.159],[8.545,63.132],[8.167,63.115],[8.62,62.878],[8.329,62.881],[8.339,62.959],[8.087,63.11],[7.972,62.976],[7.501,62.911],[7.27,63.014],[6.91,62.929],[6.791,62.829],[6.842,62.751],[6.566,62.648],[7.313,62.745],[7.385,62.687],[8.073,62.78],[7.522,62.674],[7.383,62.62],[7.519,62.541],[7.094,62.652],[6.583,62.635],[6.32,62.609],[5.977,62.544],[6.113,62.394],[6.709,62.451],[6.028,62.305],[5.927,62.199],[5.431,62.186],[5.452,62.062],[5.182,62.212],[5.071,62.164],[5.289,62.018],[4.946,62.021],[5.032,61.89],[5.424,61.938],[6.099,61.957],[6.221,62.007],[6.516,61.932],[7.325,62.031],[7.583,62.105],[7.741,62.184],[7.966,62.173],[8.257,62.35],[8.975,62.377],[9.608,62.26],[10.075,62.436],[10.005,62.566],[10.203,62.691],[10.92,62.698],[11.132,62.658],[11.249,62.535]]],[[[5.704,62.298],[5.546,62.192],[5.78,62.208],[5.704,62.298]]],[[[6.068,62.348],[5.805,62.362],[5.873,62.255],[6.068,62.348]]],[[[7.931,63.073],[7.856,63.135],[7.743,63.138],[7.599,63.12],[7.544,63.07],[7.4,63.055],[7.526,62.946],[7.931,63.073]]],[[[8.193,63.293],[8.186,63.496],[7.884,63.452],[7.807,63.371],[7.951,63.275],[8.193,63.293]]],[[[8.966,63.656],[8.545,63.602],[8.278,63.466],[8.505,63.434],[9.175,63.567],[8.966,63.656]]],[[[8.797,63.805],[8.314,63.668],[8.743,63.688],[8.797,63.805]]],[[[11.075,64.907],[11.061,65.029],[10.698,64.851],[11.075,64.907]]]]}}
