{"type":"Feature","properties":{"zoneName":"NO-NO1","countryKey":"NO","countryName":"Norway"},"geometry":{"type":"MultiPolygon","coordinates":[[[[10.26,59.54],[10.48,59.51],[10.66,59.59],[10.6,59.42],[10.82,59.16],[10.9,59.2],[11.3,59.12],[11.37,59.1],[11.45,58.9],[11.67,58.92],[11.81,59.29],[11.68,59.56],[11.9,59.77],[11.85,59.87],[12.14,59.9],[12.45,60.05],[12.61,60.49],[12.34,60.83],[12.28,61.02],[12.67,61.05],[12.87,61.36],[12.57,61.57],[12.42,61.57],[12.14,61.72],[12.3,62.27],[12.26,62.33],[12.14,62.31],[12.04,62.35],[11.77,62.38],[11.73,62.35],[11.67,62.38],[11.55,62.37],[11.42,62.48],[11.25,62.54],[11.13,62.66],[10.92,62.7],[10.2,62.69],[10,62.57],[10.08,62.44],[9.61,62.26],[8.98,62.38],[8.26,62.35],[7.97,62.17],[7.74,62.18],[7.58,62.1],[7.32,62.03],[7.49,61.74],[7.9,61.76],[7.91,61.57],[8.22,61.54],[8.29,61.45],[8.05,61.2],[8.27,61],[7.85,60.9],[7.48,60.68],[7.72,60.53],[7.49,60.1],[7.66,60.13],[7.82,60.1],[8.13,60.18],[8.84,60.16],[9.68,59.42],[9.62,58.9],[10.08,58.98],[10.29,59.05],[10.33,59.1],[10.41,59.04],[10.48,59.1],[10.53,59.3],[10.49,59.44],[10.26,59.54]]]]}}
