{"type":"Feature","properties":{"zoneName":"NO-NO5","countryKey":"NO","countryName":"Norway"},"geometry":{"type":"MultiPolygon","coordinates":[[[[8.049,61.2],[8.292,61.445],[8.222,61.54],[7.906,61.568],[7.896,61.756],[7.492,61.739],[7.325,62.03],[6.517,61.932],[6.221,62.007],[6.098,61.957],[5.424,61.938],[5.032,61.89],[4.906,61.917],[4.757,61.807],[4.833,61.709],[4.672,61.57],[5.059,61.454],[4.672,61.292],[4.908,61.235],[4.633,61.069],[4.686,60.978],[5.009,61.061],[4.821,60.881],[5.294,60.823],[5.305,60.712],[4.927,60.8],[4.847,60.613],[5.215,60.503],[5.693,60.753],[5.708,60.471],[5.618,60.418],[5.541,60.445],[5.675,60.473],[5.686,60.677],[5.323,60.546],[5.418,60.488],[5.305,60.528],[5.179,60.389],[5.222,60.212],[5.843,60.112],[5.634,59.818],[5.649,59.721],[5.754,59.696],[5.815,59.634],[6.155,59.587],[6.323,59.778],[6.667,59.858],[6.692,59.702],[7.092,59.779],[7.24,59.973],[7.429,60.019],[7.725,60.531],[7.481,60.675],[7.845,60.896],[8.27,60.998],[8.049,61.2]]],[[[5.182,60.192],[5.153,60.477],[4.877,60.449],[5.006,60.154],[5.182,60.192]]]]}}
