{"type":"Feature","properties":{"zoneName":"PL","countryKey":"PL","countryName":"Poland"},"geometry":{"type":"MultiPolygon","coordinates":[[[[23.485,53.939],[23.431,54.17],[22.858,54.399],[22.7,54.343],[21.256,54.332],[19.68,54.437],[19.611,54.457],[19.377,54.377],[19.003,54.346],[18.589,54.434],[18.571,54.55],[18.315,54.838],[17.887,54.824],[17.336,54.749],[16.94,54.606],[16.569,54.557],[16.137,54.29],[14.784,54.035],[14.366,53.918],[14.225,53.928],[14.212,53.869],[14.311,53.82],[14.439,53.858],[14.632,53.852],[14.607,53.771],[14.554,53.754],[14.547,53.664],[14.265,53.7],[14.409,53.272],[14.344,53.049],[14.125,52.85],[14.643,52.577],[14.539,52.422],[14.762,52.077],[14.586,51.804],[14.733,51.516],[14.946,51.449],[15.021,51.237],[14.809,50.858],[14.982,50.859],[14.96,50.993],[15.27,50.952],[15.442,50.801],[16.087,50.646],[16.332,50.643],[16.382,50.515],[16.191,50.424],[16.335,50.371],[16.702,50.095],[16.962,50.233],[16.864,50.423],[17.178,50.381],[17.336,50.27],[17.606,50.258],[17.588,50.164],[17.84,49.974],[18.038,50.008],[18.56,49.908],[18.636,49.7],[18.772,49.676],[18.834,49.51],[18.963,49.39],[19.172,49.403],[19.442,49.602],[19.626,49.401],[19.77,49.393],[19.748,49.207],[20.05,49.174],[20.306,49.387],[20.691,49.401],[20.943,49.295],[21.26,49.45],[21.818,49.377],[22.012,49.211],[22.855,48.993],[22.707,49.169],[22.642,49.529],[23.103,49.956],[23.748,50.39],[23.982,50.404],[24.108,50.54],[23.971,50.825],[24.129,50.839],[23.913,51.007],[23.874,51.136],[23.632,51.339],[23.56,51.754],[23.636,52.084],[23.164,52.289],[23.391,52.509],[23.87,52.67],[23.924,52.743],[23.895,53.152],[23.589,53.611],[23.485,53.939]]]]}}
