{"type":"Feature","properties":{"zoneName":"PT","countryKey":"PT","countryName":"Portugal"},"geometry":{"type":"MultiPolygon","coordinates":[[[[-8.879,41.736],[-8.656,40.994],[-8.865,40.275],[-8.869,40.125],[-9.07,39.68],[-9.34,39.266],[-9.491,38.708],[-9.124,38.714],[-9.254,38.665],[-9.2,38.412],[-8.955,38.505],[-8.797,38.359],[-8.775,38.187],[-8.894,37.953],[-8.822,37.927],[-8.797,37.49],[-8.998,37.021],[-8.627,37.121],[-8.177,37.088],[-7.821,36.999],[-7.414,37.193],[-7.529,37.568],[-7.274,37.977],[-7.025,38.023],[-6.946,38.197],[-7.105,38.173],[-7.36,38.446],[-7.27,38.738],[-7.058,38.856],[-6.975,39.014],[-7.166,39.113],[-7.328,39.341],[-7.313,39.458],[-7.558,39.68],[-7.036,39.69],[-6.881,40.009],[-7.043,40.181],[-6.795,40.357],[-6.856,40.443],[-6.838,40.84],[-6.943,41.016],[-6.817,41.054],[-6.647,41.268],[-6.496,41.296],[-6.205,41.57],[-6.579,41.739],[-6.568,41.927],[-7.144,41.988],[-7.252,41.864],[-7.623,41.832],[-7.72,41.899],[-8.181,41.811],[-8.095,42.041],[-8.221,42.154],[-8.627,42.051],[-8.875,41.869],[-8.879,41.736]]]]}}
