{"type":"Feature","properties":{"zoneName":"RO","countryKey":"RO","countryName":"Romania"},"geometry":{"type":"MultiPolygon","coordinates":[[[[28.579,43.741],[28.672,44.003],[28.64,44.328],[28.91,44.584],[28.863,44.892],[28.971,45.011],[29.097,44.776],[29.619,44.862],[29.652,45.345],[29.32,45.444],[28.777,45.231],[28.33,45.323],[28.201,45.461],[28.086,46.001],[28.248,46.427],[28.233,46.662],[28.028,47.033],[27.805,47.144],[27.564,47.468],[27.304,47.667],[27.171,47.974],[26.998,48.166],[26.617,48.259],[26.304,48.212],[26.174,47.993],[25.263,47.899],[25.123,47.77],[24.896,47.71],[24.561,47.94],[24.23,47.897],[23.78,47.987],[23.359,47.993],[23.118,48.092],[22.876,47.947],[22.747,47.826],[22.261,47.715],[21.987,47.494],[21.771,47.114],[21.634,47.023],[21.505,46.724],[21.318,46.616],[21.134,46.279],[20.839,46.271],[20.608,46.13],[20.241,46.108],[20.338,45.992],[20.785,45.752],[20.76,45.493],[20.983,45.333],[21.494,45.145],[21.354,44.989],[21.523,44.88],[21.361,44.826],[21.656,44.687],[22.005,44.651],[22.185,44.515],[22.426,44.733],[22.765,44.583],[22.484,44.5],[22.693,44.228],[23.031,44.093],[22.887,43.995],[22.92,43.834],[23.326,43.887],[24.158,43.753],[24.5,43.8],[24.964,43.75],[25.36,43.654],[25.782,43.733],[26.152,44.012],[27.027,44.178],[27.384,44.015],[27.913,43.993],[27.981,43.85],[28.222,43.761],[28.579,43.741]]]]}}
