{"type":"Feature","properties":{"zoneName":"RS","countryKey":"RS","countryName":"Serbia"},"geometry":{"type":"MultiPolygon","coordinates":[[[[19.19,43.53],[19.62,43.17],[19.93,43.11],[20.35,42.83],[20.67,43.11],[20.6,43.18],[20.82,43.26],[20.84,43.17],[21.09,43.09],[21.38,42.74],[21.76,42.67],[21.56,42.25],[22.26,42.37],[22.34,42.31],[22.51,42.4],[22.43,42.57],[22.51,42.87],[22.73,42.89],[22.98,43.2],[22.52,43.47],[22.35,43.81],[22.4,43.99],[22.61,44.08],[22.69,44.23],[22.48,44.5],[22.76,44.58],[22.43,44.73],[22.19,44.52],[22.01,44.65],[21.66,44.69],[21.36,44.83],[21.52,44.88],[21.35,44.99],[21.49,45.15],[20.98,45.33],[20.76,45.49],[20.78,45.75],[20.34,45.99],[20.24,46.11],[19.93,46.16],[19.55,46.16],[19.26,45.98],[19.06,46.01],[18.9,45.93],[18.85,45.81],[19.02,45.57],[19,45.37],[19.36,45.25],[19.39,45.17],[19.06,45.15],[19.02,44.86],[19.36,44.9],[19.18,44.54],[19.18,44.29],[19.62,44.04],[19.24,43.95],[19.46,43.76],[19.48,43.56],[19.19,43.53]]]]}}
