{"type":"Feature","properties":{"zoneName":"RU-1","countryKey":"RU","countryName":"Russian Federation"},"geometry":{"type":"MultiPolygon","coordinates":[[[[49.041,46.196],[48.714,46.13],[48.793,45.841],[48.573,45.971],[48.181,45.739],[47.627,45.709],[47.497,45.566],[47.537,45.507],[47.295,45.188],[47.202,44.971],[46.723,44.656],[46.701,44.447],[47.043,44.347],[47.245,44.212],[47.443,43.82],[47.45,43.518],[47.594,43.902],[47.49,43.462],[47.461,43.021],[47.699,42.867],[47.717,42.697],[47.868,42.585],[48.303,42.103],[48.415,41.915],[48.596,41.838],[48.372,41.58],[48.055,41.462],[47.814,41.197],[47.367,41.261],[47.18,41.492],[47.029,41.557],[46.709,41.835],[46.586,41.786],[46.223,41.994],[45.949,42.023],[45.621,42.224],[45.74,42.47],[45.355,42.521],[45.103,42.701],[45.067,42.688],[44.858,42.76],[44.783,42.616],[44.639,42.739],[44.271,42.702],[44.196,42.629],[43.922,42.559],[43.749,42.599],[43.8,42.747],[43.479,42.867],[43.195,42.927],[43.001,43.099],[42.752,43.177],[42.597,43.14],[42.425,43.229],[42.356,43.236],[42.075,43.186],[41.55,43.226],[41.381,43.335],[41.013,43.375],[40.682,43.528],[40.232,43.575],[40.059,43.535],[39.987,43.389],[39.717,43.568],[38.979,44.148],[38.594,44.332],[38.177,44.407],[37.874,44.69],[37.77,44.633],[37.478,44.677],[37.287,44.928],[36.596,45.205],[36.791,45.293],[36.834,45.443],[37.14,45.335],[37.111,45.24],[37.518,45.37],[37.737,45.311],[37.701,45.563],[37.586,45.433],[37.608,45.663],[37.831,45.753],[37.971,46.04],[38.249,46.141],[38.447,46.034],[38.558,46.115],[38.299,46.218],[38.123,46.377],[37.971,46.362],[37.737,46.676],[38.036,46.629],[38.389,46.732],[38.475,46.862],[38.673,46.862],[39.077,47.033],[39.26,47.008],[39.264,47.26],[39.087,47.286],[38.936,47.19],[38.216,47.103],[38.202,47.29],[38.353,47.607],[38.735,47.677],[38.832,47.848],[39.761,47.833],[39.843,48.12],[39.995,48.273],[39.807,48.584],[39.631,48.587],[39.703,48.747],[39.951,48.853],[39.757,48.896],[39.681,49.021],[39.919,49.048],[40.142,49.245],[40.041,49.456],[40.117,49.589],[39.8,49.543],[39.559,49.725],[39.329,49.726],[39.181,49.859],[38.936,49.803],[38.688,49.913],[38.173,50.059],[38,49.899],[37.727,50.078],[37.435,50.424],[36.913,50.339],[36.596,50.204],[36.269,50.281],[36.107,50.422],[35.837,50.423],[35.696,50.346],[35.448,50.476],[35.469,50.669],[35.282,50.961],[35.099,51.183],[34.749,51.164],[34.623,51.224],[34.188,51.249],[34.299,51.369],[34.127,51.681],[34.375,51.708],[34.371,51.827],[34.098,51.951],[34.055,52.17],[33.803,52.355],[33.533,52.289],[33.198,52.369],[32.928,52.248],[32.355,52.322],[32.233,52.08],[31.891,52.036],[31.765,52.1],[31.567,52.312],[31.506,52.849],[31.247,53.015],[31.365,53.109],[31.416,53.201],[31.74,53.192],[31.797,53.112],[32.082,53.082],[32.406,53.192],[32.719,53.431],[32.453,53.547],[32.463,53.707],[32.085,53.81],[31.743,53.795],[31.815,54.056],[31.326,54.23],[31.167,54.467],[31.167,54.622],[30.771,54.786],[30.815,54.928],[31.005,55.022],[30.793,55.286],[30.919,55.407],[30.908,55.578],[30.595,55.665],[30.469,55.794],[30.217,55.855],[29.868,55.831],[29.461,55.688],[29.342,55.787],[29.378,55.954],[29.032,56.024],[28.809,55.934],[28.622,56.083],[28.291,56.047],[28.156,56.161],[28.165,56.438],[27.917,56.813],[27.661,56.84],[27.861,57.284],[27.351,57.528],[27.538,57.812],[27.7,57.825],[27.495,58.221],[27.556,58.396],[27.409,58.755],[27.697,58.977],[27.884,59.276],[28.186,59.374],[28.017,59.482],[27.992,59.704],[28.086,59.799],[28.374,59.666],[28.518,59.862],[28.719,59.787],[28.975,59.831],[29.162,60.003],[29.698,59.95],[30.116,59.871],[30.21,60.001],[29.947,60.03],[29.85,60.167],[29.418,60.169],[29.014,60.197],[28.816,60.362],[28.608,60.389],[28.438,60.559],[28.683,60.456],[28.654,60.682],[28.399,60.665],[28.215,60.548],[27.808,60.554],[28.519,60.95],[28.654,60.95],[28.798,61.097],[29.288,61.316],[30.676,62.2],[31.243,62.503],[31.571,62.906],[31.25,63.115],[31.237,63.216],[30.79,63.405],[30.487,63.462],[29.971,63.756],[30.266,63.823],[30.509,63.991],[30.559,64.22],[30.033,64.397],[29.965,64.579],[30.144,64.634],[30.062,64.784],[29.781,64.795],[29.587,64.991],[29.821,65.093],[29.832,65.205],[29.608,65.246],[29.742,65.348],[29.722,65.636],[30.143,65.67],[30.093,65.83],[29.923,66.124],[29.69,66.287],[29.364,66.627],[29.058,66.855],[29.032,66.933],[29.083,67.002],[29.93,67.522],[30.019,67.673],[29.658,67.804],[29.329,68.074],[28.648,68.198],[28.435,68.539],[28.802,68.835],[28.456,68.9],[28.929,69.051],[29.042,69.011],[29.241,69.116],[29.335,69.277],[29.9,69.358],[30.123,69.442],[30.296,69.621],[30.512,69.537],[30.854,69.528],[30.926,69.672],[30.84,69.806],[31.261,69.764],[31.452,69.688],[31.812,69.688],[31.754,69.854],[32.028,69.783],[31.92,69.926],[32.053,69.964],[32.625,69.783],[32.921,69.78],[33.119,69.661],[32.87,69.582],[32.168,69.655],[32.017,69.564],[32.388,69.585],[32.535,69.509],[33.086,69.476],[32.863,69.365],[33.327,69.452],[33.525,69.428],[33.295,69.229],[33.499,69.187],[33.619,69.328],[34.422,69.31],[34.663,69.249],[35.264,69.216],[35.329,69.276],[35.966,69.177],[36.312,69.057],[36.841,68.945],[37.464,68.742],[37.68,68.714],[38.436,68.356],[38.612,68.387],[39.519,68.075],[40.005,68.02],[40.362,67.902],[40.502,67.751],[40.671,67.811],[41.017,67.698],[40.999,67.467],[41.147,67.424],[41.111,67.254],[41.309,67.235],[41.359,67.014],[41.179,66.809],[40.445,66.405],[40.085,66.289],[39.343,66.135],[38.555,66.055],[37.928,66.089],[36.888,66.285],[36.405,66.295],[35.379,66.418],[34.803,66.613],[34.433,66.547],[34.173,66.687],[33.831,66.696],[33.525,66.83],[33.482,66.73],[32.845,66.976],[32.809,67.091],[32.384,67.159],[32.262,67.125],[32.557,66.989],[32.546,66.883],[32.813,66.736],[33.183,66.693],[32.885,66.586],[33.047,66.576],[33.259,66.619],[33.5,66.523],[33.165,66.556],[33.705,66.444],[33.597,66.331],[34.497,66.116],[34.854,65.9],[34.901,65.705],[34.688,65.81],[34.778,65.597],[34.443,65.371],[34.818,65.043],[34.703,64.98],[34.944,64.857],[34.8,64.757],[34.976,64.612],[34.775,64.556],[35.412,64.287],[35.811,64.342],[35.977,64.199],[36.236,64.124],[36.294,64.01],[36.524,63.971],[36.553,63.764],[36.377,63.645],[35.883,63.573],[36.218,63.417],[36.319,63.161],[36.258,63.032],[36.499,62.826],[37.082,62.656],[37.503,62.646],[37.572,62.361],[37.431,62.237],[37.719,62.204],[37.809,61.998],[37.928,61.969],[37.773,61.522],[37.964,61.149],[38.177,61.12],[38.213,60.924],[38.36,60.956],[38.429,60.804],[38.663,60.711],[38.947,60.803],[39.069,60.714],[39.339,60.684],[39.649,60.745],[39.923,60.652],[40.747,60.78],[41.06,60.649],[41.345,60.647],[41.381,60.851],[41.802,60.898],[42.396,60.77],[42.651,60.863],[43.047,60.74],[43.148,60.805],[43.512,60.767],[43.717,60.884],[43.775,61.02],[44.16,61.083],[44.207,60.971],[45.229,60.904],[45.333,61.189],[45.722,61.179],[45.765,61.054],[46.284,60.967],[46.5,61.064],[46.752,60.907],[47.043,60.854],[47.195,61.049],[47.569,61.059],[47.965,60.999],[47.983,60.897],[48.419,60.854],[48.537,60.565],[48.753,60.362],[48.462,60.197],[48.509,59.715],[49.074,59.659],[49.038,59.5],[49.535,59.394],[49.527,59.236],[49.794,59.233],[49.833,59.638],[50.388,59.839],[50.831,59.871],[51.076,60.061],[51.522,59.947],[52.062,60.317],[52.3,60.242],[52.325,60.432],[52.134,60.546],[51.774,60.605],[51.889,60.876],[52.354,60.844],[52.444,60.98],[52.789,60.949],[52.876,61.095],[53.347,61.037],[53.354,60.893],[53.79,60.848],[53.855,60.98],[54.978,60.864],[55.061,61.009],[55.316,61.123],[55.691,61.086],[55.842,61.249],[56.256,61.206],[56.389,61.421],[56.702,61.525],[58.693,61.502],[59.024,61.552],[59.348,61.683],[59.345,61.856],[59.485,61.993],[59.402,62.108],[59.644,62.51],[59.395,62.732],[59.482,62.892],[59.276,62.971],[59.291,63.343],[59.492,63.61],[59.586,63.938],[59.762,63.995],[59.838,64.153],[59.59,64.233],[59.59,64.468],[59.485,64.498],[59.705,64.668],[59.647,64.772],[60.148,65.064],[60.436,65.041],[60.666,64.903],[60.832,65.051],[61.004,65.06],[61.318,65.266],[61.253,65.319],[61.883,65.701],[62.837,65.869],[62.822,66.012],[63.067,66.232],[63.438,66.485],[63.809,66.547],[63.971,66.646],[64.316,66.667],[64.568,66.793],[65.116,66.908],[65.191,67.145],[66.109,67.489],[65.832,67.643],[66.152,67.657],[66.023,67.795],[66.084,67.934],[65.436,67.919],[65.288,68.012],[65.274,68.217],[65.479,68.43],[65.656,68.556],[65.515,68.588],[65.314,68.804],[64.766,68.89],[64.554,68.871],[64.547,69.033],[64.99,69.204],[65.036,69.272],[65.418,69.177],[65.818,69.143],[65.717,69.08],[66.113,69.037],[66.329,68.964],[67.128,68.838],[67.056,68.781],[68.258,68.334],[68.287,68.188],[68.651,68.317],[68.572,68.383],[68.924,68.638],[69.097,68.941],[68.687,68.918],[68.489,68.97],[68.021,69.335],[68.039,69.489],[67.103,69.692],[66.786,69.602],[66.872,69.996],[67.25,70.022],[67.326,70.106],[67.096,70.221],[67.265,70.415],[67.222,70.547],[67.326,70.717],[67.139,70.842],[66.689,70.77],[66.61,70.88],[66.89,71.079],[66.642,71.009],[66.926,71.298],[67.308,71.351],[67.949,71.527],[68.478,71.836],[68.644,72.034],[68.87,72.532],[68.989,72.706],[69.464,72.975],[69.774,72.974],[69.587,72.878],[71.563,72.915],[72.496,72.788],[72.838,72.709],[72.73,72.618],[72.845,72.52],[72.867,72.271],[72.352,71.865],[72.363,71.736],[72.208,71.614],[71.837,71.533],[71.841,71.431],[72.107,71.291],[72.672,71.109],[72.633,71.011],[72.827,70.887],[72.687,70.634],[72.773,70.425],[72.435,70.266],[72.622,70.162],[72.492,70.047],[72.69,69.837],[72.503,69.647],[72.64,69.442],[72.489,69.413],[72.647,69.292],[72.489,69.199],[72.579,68.94],[72.852,68.798],[73.54,68.581],[73.644,68.502],[73.09,68.214],[73.205,67.866],[73.151,67.732],[72.611,67.626],[72.406,67.48],[72.402,67.328],[72.053,67.268],[72.233,67.169],[71.913,67.132],[72.006,67.076],[71.722,66.915],[71.301,66.953],[71.517,66.879],[71.578,66.659],[71.085,66.631],[70.98,66.536],[70.689,66.515],[70.296,66.639],[69.896,66.872],[69.835,66.816],[68.964,66.809],[69.104,66.772],[69.112,66.619],[69.385,66.514],[69.731,66.484],[70.361,66.334],[71.146,66.365],[71.679,66.324],[71.992,66.231],[72.377,66.341],[72.492,66.619],[72.942,66.657],[73.003,66.739],[73.493,66.823],[73.871,67.006],[73.9,67.297],[74.098,67.431],[74.731,67.686],[74.825,67.941],[74.703,68.181],[74.332,68.386],[74.469,68.535],[74.454,68.694],[74.627,68.775],[75.192,68.875],[76.377,68.994],[76.611,68.966],[76.661,68.762],[77.316,68.53],[77.169,68.281],[77.356,68.233],[77.194,67.985],[77.305,67.911],[77.122,67.769],[77.676,67.617],[77.694,67.546],[78.047,67.543],[78.979,67.61],[78.609,67.663],[78.112,67.657],[77.493,67.752],[77.536,68.128],[77.752,68.228],[78.173,68.274],[77.716,68.621],[77.683,68.885],[77.233,68.99],[76.927,69.01],[76.755,69.124],[76.042,69.239],[75.509,69.262],[75.106,69.104],[74.775,69.081],[74.249,69.142],[73.961,69.084],[73.752,69.183],[73.9,69.413],[73.515,69.747],[73.659,69.86],[73.734,70.18],[74.008,70.305],[74.317,70.52],[74.317,70.668],[73.954,70.837],[73.558,71.255],[73.036,71.441],[73.482,71.653],[73.525,71.822],[74.332,71.955],[74.929,72.098],[75.077,72.21],[75.109,72.403],[75.027,72.652],[74.749,72.808],[74.983,72.877],[75.318,72.819],[75.703,72.548],[75.574,72.467],[75.721,72.25],[75.516,72.153],[75.444,71.992],[75.286,71.959],[75.264,71.743],[75.491,71.666],[75.534,71.543],[75.228,71.404],[75.343,71.335],[76.017,71.237],[77.784,71.142],[78,70.963],[78.454,70.895],[78.497,71.115],[78.238,71.109],[78.277,71.26],[77.928,71.258],[77.968,71.374],[77.673,71.287],[77.075,71.428],[76.711,71.463],[76.326,71.56],[75.999,71.908],[76.355,71.999],[76.945,72.044],[77.586,71.831],[78.108,71.881],[78.205,72.001],[77.939,72.118],[77.464,72.068],[77.507,72.223],[77.651,72.19],[78.126,72.384],[78.504,72.381],[78.699,72.18],[79.419,72.044],[79.696,72.058],[80.34,71.889],[80.038,71.815],[80.117,71.675],[79.869,71.602],[79.383,71.614],[79.332,71.481],[79.141,71.421],[79.246,71.317],[79.566,71.277],[79.955,71.134],[80.549,71.045],[80.754,70.636],[80.571,70.461],[80.178,70.429],[80.095,70.354],[79.71,70.275],[79.505,70.116],[78.915,69.861],[79.015,69.698],[79.491,69.654],[79.865,69.349],[80.261,69.356],[80.733,69.308],[80.967,69.209],[81.323,69.286],[81.611,69.286],[81.625,69.409],[81.928,69.349],[81.773,69.233],[81.892,69.183],[82.443,69.167],[82.331,69.061],[82.59,68.811],[83.029,68.661],[82.468,68.576],[82.666,68.505],[82.68,68.283],[82.396,68.177],[82.353,67.944],[81.777,67.951],[82.05,67.655],[82.389,67.534],[82.255,67.426],[82.353,67.328],[82.119,67.244],[83.163,66.817],[83.292,66.663],[83.105,66.617],[83.091,66.46],[83.526,66.173],[83.296,66.059],[83.591,65.776],[84.03,65.793],[84.318,65.684],[84.203,65.592],[84.43,65.551],[84.585,65.311],[84.311,65.099],[84.279,64.94],[84.469,64.89],[84.819,64.931],[85.186,64.751],[85.611,64.828],[85.859,64.757],[85.845,64.501],[86.028,64.28],[85.949,64.054],[85.535,63.937],[85.333,63.701],[85.096,63.535],[85.377,63.466],[85.409,63.353],[85.639,63.374],[85.47,63.15],[85.585,63.054],[84.437,62.178],[84.545,61.903],[85.481,61.628],[85.956,61.55],[85.949,61.465],[85.643,61.388],[85.672,61.289],[84.649,61],[84.261,60.856],[83.998,60.826],[83.505,61.047],[83.145,61.029],[82.407,60.722],[82.363,60.601],[82.14,60.532],[81.831,60.645],[81.139,60.637],[81.017,60.757],[80.722,60.797],[80.412,60.761],[80.164,60.664],[79.854,60.692],[79.361,60.664],[79.17,60.837],[78.807,60.78],[78.166,60.803],[77.943,60.75],[77.701,60.826],[77.136,60.856],[76.971,60.649],[77.014,60.528],[76.78,60.452],[76.848,60.266],[76.758,60.057],[76.74,59.758],[76.647,59.585],[76.171,59.543],[75.628,59.238],[75.642,58.982],[75.16,58.65],[75.106,58.582],[74.206,58.134],[73.086,58.147],[72.863,58.011],[72.15,58.026],[71.988,58.122],[71.25,58.076],[71.301,58.386],[71.085,58.519],[70.865,58.534],[70.437,57.933],[70.429,57.784],[70.674,57.511],[70.437,57.41],[70.728,57.193],[70.8,57.319],[71.081,57.344],[71.373,57.063],[71.653,56.923],[71.556,56.733],[71.358,56.671],[71.045,56.694],[71.031,56.527],[70.782,56.472],[70.937,56.405],[70.771,56.296],[70.912,56.132],[70.847,55.963],[70.487,55.854],[70.548,55.675],[70.746,55.591],[70.473,55.417],[70.469,55.286],[70.195,55.134],[69.673,55.334],[69.335,55.385],[69.187,55.326],[68.942,55.435],[68.924,55.276],[68.734,55.352],[68.604,55.196],[68.262,55.194],[68.309,55.073],[68.165,54.957],[67.816,54.952],[67.621,54.854],[65.976,54.612],[65.933,54.702],[65.713,54.597],[65.45,54.627],[65.213,54.527],[65.213,54.343],[64.91,54.403],[63.982,54.304],[64.007,54.228],[63.708,54.251],[63.085,54.085],[62.812,54.095],[62.549,54.026],[62.498,53.878],[62.412,54.026],[61.602,53.951],[61.418,54.056],[61.195,54.018],[61.21,53.908],[60.979,53.882],[61.202,53.819],[61.008,53.636],[61.318,53.546],[61.505,53.589],[61.411,53.435],[61.217,53.493],[61.202,53.277],[62.052,53.125],[62.095,52.993],[61.606,52.949],[61.48,53.012],[60.976,52.97],[61.058,52.922],[60.677,52.664],[60.803,52.628],[61.04,52.335],[60.673,52.145],[60.508,52.152],[60.202,51.993],[60.004,51.993],[60.008,51.931],[60.479,51.784],[60.356,51.671],[60.515,51.618],[60.936,51.611],[61.022,51.485],[61.472,51.426],[61.595,51.277],[61.663,51.259],[61.512,51.16],[61.372,50.782],[60.72,50.653],[60.299,50.685],[60.022,50.854],[59.773,50.533],[59.521,50.474],[59.438,50.63],[58.927,50.678],[58.571,50.864],[58.596,51.024],[58.308,51.15],[58.139,51.057],[57.768,51.12],[57.689,50.897],[57.354,50.887],[57.167,51.094],[56.508,51.067],[56.335,50.895],[56.173,50.908],[56.08,50.725],[55.658,50.53],[55.306,50.665],[55.046,50.884],[54.64,51.028],[54.676,50.602],[54.499,50.523],[54.38,50.619],[54.478,50.854],[54.175,50.968],[53.938,51.186],[53.675,51.22],[53.617,51.372],[53.347,51.503],[52.577,51.468],[52.336,51.764],[52.091,51.659],[51.868,51.674],[51.781,51.493],[51.562,51.535],[51.306,51.472],[51.371,51.629],[50.894,51.683],[50.872,51.754],[50.771,51.771],[50.791,51.598],[50.582,51.635],[50.518,51.459],[50.348,51.323],[49.988,51.23],[49.779,51.103],[49.423,51.101],[49.409,50.848],[49.142,50.782],[48.829,50.596],[48.674,50.579],[48.703,50.334],[48.887,50.019],[48.419,49.812],[48.239,49.865],[47.994,50.181],[47.623,50.44],[47.436,50.377],[47.295,50.276],[47.31,50.045],[46.899,49.82],[46.773,49.332],[47.029,49.201],[47.022,49.096],[46.755,48.915],[46.478,48.411],[47.079,48.275],[47.043,47.986],[47.119,47.82],[47.36,47.684],[47.436,47.834],[47.648,47.765],[48.044,47.77],[48.527,47.411],[48.696,47.101],[49.005,46.769],[48.764,46.684],[48.555,46.762],[48.455,46.661],[49.229,46.327],[49.041,46.196]],[[30.235,61.043],[30.534,60.826],[30.534,60.629],[30.696,60.587],[31.157,60.013],[31.07,59.933],[31.571,59.951],[31.589,60.167],[31.779,60.246],[32.165,60.216],[32.291,60.134],[32.618,60.239],[32.687,60.403],[32.953,60.657],[32.885,60.698],[32.805,60.861],[32.593,60.992],[32.51,61.136],[31.913,61.312],[31.38,61.623],[31.16,61.613],[30.822,61.776],[30.487,61.491],[30.264,61.458],[29.878,61.175],[30.235,61.043]]],[[[69.878,66.477],[69.544,66.591],[69.425,66.769],[69.756,66.762],[70.087,66.69],[70.131,66.557],[69.878,66.477]]],[[[78.396,72.492],[77.586,72.286],[76.917,72.293],[76.913,72.371],[77.23,72.46],[77.611,72.635],[78.277,72.552],[78.396,72.492]]],[[[74.71,72.901],[74.465,72.9],[74.094,73.028],[74.213,73.114],[74.724,73.107],[74.71,72.901]]],[[[76.319,73.149],[76.186,73.217],[76.693,73.186],[76.319,73.149]]],[[[71.751,73.043],[71.376,73.179],[70.102,73.018],[69.875,73.038],[70.069,73.257],[69.958,73.399],[70.469,73.499],[70.948,73.518],[71.232,73.272],[71.459,73.349],[71.668,73.227],[71.751,73.043]]],[[[75.901,73.471],[75.498,73.449],[75.621,73.554],[76.035,73.579],[75.923,73.524],[75.901,73.471]]],[[[67.258,69.439],[67.06,69.451],[67.33,69.572],[67.258,69.439]]],[[[35.505,65.096],[35.815,65.155],[35.865,65.031],[35.505,65.096]]]]}}
