{"type":"Feature","properties":{"zoneName":"RU-EU","countryKey":"RU","countryName":"Russian Federation"},"geometry":{"type":"MultiPolygon","coordinates":[[[[65.036,69.272],[64.763,69.163],[64.831,69.295],[65.004,69.305],[64.129,69.551],[63.409,69.671],[62.632,69.743],[61.408,69.791],[60.925,69.867],[60.77,69.848],[60.655,69.672],[60.234,69.665],[60.14,69.578],[60.518,69.332],[60.583,69.15],[60.904,69.123],[60.907,68.927],[60.468,68.722],[59.773,68.668],[59.964,68.466],[59.676,68.336],[59.111,68.405],[59.057,68.619],[59.417,68.767],[58.891,68.934],[59.24,68.988],[58.88,69.003],[57.977,68.852],[57.93,68.751],[57.602,68.742],[57.329,68.565],[56.85,68.572],[56.692,68.631],[55.954,68.654],[55.392,68.565],[54.938,68.399],[54.863,68.186],[54.65,68.194],[54.467,68.304],[54.24,68.211],[54.186,68.32],[53.992,68.221],[53.239,68.253],[53.441,68.373],[53.66,68.332],[53.93,68.392],[53.722,68.656],[54.028,68.845],[53.614,68.914],[54.355,68.958],[54.528,69.01],[54.103,69.001],[53.437,68.918],[52.289,68.615],[52.732,68.475],[52.4,68.337],[52.134,68.379],[52.296,68.5],[52.066,68.482],[52.217,68.585],[50.953,68.34],[50.795,68.377],[50.435,68.22],[49.653,67.981],[49.135,67.862],[48.843,67.865],[48.779,67.728],[48.257,67.683],[47.825,67.56],[47.947,67.444],[47.695,67.205],[47.724,67.001],[47.411,66.929],[46.583,66.816],[46.579,66.873],[46.043,66.83],[45.852,66.888],[45.593,67.158],[44.952,67.321],[45.027,67.532],[45.315,67.592],[45.351,67.73],[46.003,67.768],[46.723,67.845],[46.536,68.133],[46.028,68.324],[45.945,68.446],[45.305,68.545],[43.983,68.552],[43.476,68.669],[43.325,68.613],[44.16,68.336],[44.243,68.256],[44.099,67.892],[44.131,67.803],[43.793,67.344],[43.814,67.178],[44.286,67.088],[44.498,66.922],[44.365,66.782],[44.487,66.676],[44.214,66.408],[44.045,66.08],[43.836,66.186],[43.289,66.09],[43.667,66.218],[43.253,66.437],[42.547,66.385],[42.644,66.453],[42.201,66.533],[41.856,66.297],[41.341,66.063],[40.797,65.992],[40.279,65.73],[39.825,65.607],[39.714,65.402],[40.113,65.074],[40.38,64.923],[40.517,64.542],[40.182,64.559],[39.851,64.677],[39.566,64.545],[38.922,64.732],[38.425,64.794],[38.397,64.785],[38.357,64.853],[38.047,64.854],[37.705,65.017],[37.007,65.173],[36.819,65.147],[36.809,64.958],[36.441,64.917],[36.56,64.718],[36.744,64.681],[37.122,64.395],[37.338,64.34],[37.687,64.43],[38.004,64.317],[37.914,64.22],[38.087,64.035],[38,63.955],[37.615,63.881],[37.608,63.815],[37.291,63.818],[37.169,63.895],[36.524,63.971],[36.553,63.764],[36.377,63.645],[35.883,63.573],[36.218,63.417],[36.319,63.161],[36.258,63.032],[36.499,62.826],[37.082,62.656],[37.503,62.646],[37.572,62.361],[37.431,62.237],[37.719,62.204],[37.809,61.998],[37.928,61.969],[37.773,61.522],[37.964,61.149],[38.177,61.12],[38.213,60.924],[38.36,60.956],[38.429,60.804],[38.663,60.711],[38.947,60.803],[39.069,60.714],[39.339,60.684],[39.649,60.745],[39.923,60.652],[40.747,60.78],[41.06,60.649],[41.345,60.647],[41.381,60.851],[41.802,60.898],[42.396,60.77],[42.651,60.863],[43.047,60.74],[43.148,60.805],[43.512,60.767],[43.717,60.884],[43.775,61.02],[44.16,61.083],[44.207,60.971],[45.229,60.904],[45.333,61.189],[45.722,61.179],[45.765,61.054],[46.284,60.967],[46.5,61.064],[46.752,60.907],[47.043,60.854],[47.195,61.049],[47.569,61.059],[47.965,60.999],[47.983,60.897],[48.419,60.854],[48.537,60.565],[48.753,60.362],[48.462,60.197],[48.509,59.715],[49.074,59.659],[49.038,59.5],[49.535,59.394],[49.527,59.236],[49.794,59.233],[49.833,59.638],[50.388,59.839],[50.831,59.871],[51.076,60.061],[51.522,59.947],[52.062,60.317],[52.3,60.242],[52.325,60.432],[52.134,60.546],[51.774,60.605],[51.889,60.876],[52.354,60.844],[52.444,60.98],[52.789,60.949],[52.876,61.095],[53.347,61.037],[53.354,60.893],[53.79,60.848],[53.855,60.98],[54.978,60.864],[55.061,61.009],[55.316,61.123],[55.691,61.086],[55.842,61.249],[56.256,61.206],[56.389,61.421],[56.702,61.525],[58.693,61.502],[59.024,61.552],[59.348,61.683],[59.345,61.856],[59.485,61.993],[59.402,62.108],[59.644,62.51],[59.395,62.732],[59.482,62.892],[59.276,62.971],[59.291,63.343],[59.492,63.61],[59.586,63.938],[59.762,63.995],[59.838,64.153],[59.59,64.233],[59.59,64.468],[59.485,64.498],[59.705,64.668],[59.647,64.772],[60.148,65.064],[60.436,65.041],[60.666,64.903],[60.832,65.051],[61.004,65.06],[61.318,65.266],[61.253,65.319],[61.883,65.701],[62.837,65.869],[62.822,66.012],[63.067,66.232],[63.438,66.485],[63.809,66.547],[63.971,66.646],[64.316,66.667],[64.568,66.793],[65.116,66.908],[65.191,67.145],[66.109,67.489],[65.832,67.643],[66.152,67.657],[66.023,67.795],[66.084,67.934],[65.436,67.919],[65.288,68.012],[65.274,68.217],[65.479,68.43],[65.656,68.556],[65.515,68.588],[65.314,68.804],[64.766,68.89],[64.554,68.871],[64.547,69.033],[64.99,69.204],[65.036,69.272]]],[[[51.41,71.806],[51.533,71.566],[51.86,71.456],[52.415,71.477],[52.519,71.629],[52.609,71.468],[52.969,71.405],[53.25,71.456],[53.452,71.264],[53.797,71.155],[54.042,71.234],[54.233,71.119],[53.491,71.072],[53.74,70.948],[53.3,70.866],[54.226,70.73],[54.492,70.784],[55.162,70.553],[55.428,70.75],[56.022,70.574],[56.645,70.574],[56.432,70.716],[56.72,70.64],[57.296,70.564],[57.638,70.73],[57.466,70.817],[57.062,70.863],[56.105,71.26],[56.026,71.371],[55.673,71.612],[55.496,71.902],[55.226,71.929],[55.576,72.2],[55.378,72.303],[55.723,72.638],[55.946,72.669],[55.738,72.784],[56.137,72.782],[56.256,72.958],[55.644,72.973],[56.227,73.008],[56.386,73.068],[55.81,73.066],[56.548,73.121],[56.436,73.23],[55.306,73.339],[54.935,73.425],[54.532,73.376],[54.19,73.272],[53.754,73.299],[53.156,73.15],[53.142,73.011],[53.308,72.878],[53.027,72.925],[52.616,72.864],[52.397,72.718],[52.778,72.648],[52.688,72.367],[52.415,72.27],[52.411,72.087],[51.868,72.158],[51.608,72.091],[51.41,71.806]]],[[[56.602,74.71],[56.386,74.721],[55.529,74.655],[55.5,74.567],[55.867,74.554],[56.263,74.479],[55.388,74.445],[55.234,74.376],[55.637,74.335],[55.529,74.282],[55.075,74.266],[55.622,74.19],[55.813,74.1],[55.154,74.189],[54.679,74.069],[54.802,73.986],[54.254,73.916],[53.869,73.778],[53.632,73.76],[54.074,73.609],[54.492,73.697],[55.09,73.705],[54.542,73.611],[54.186,73.492],[54.337,73.461],[54.035,73.375],[54.251,73.329],[54.474,73.39],[55.021,73.443],[55.435,73.332],[55.925,73.312],[56.015,73.412],[56.119,73.29],[56.76,73.252],[57.253,73.458],[57.019,73.584],[57.35,73.554],[57.57,73.608],[57.592,73.704],[57.394,73.845],[57.75,73.727],[57.944,73.807],[57.912,73.916],[57.527,74.064],[57.559,74.18],[57.725,74.056],[58.11,73.986],[58.247,74.19],[58.729,74.239],[58.639,74.424],[58.186,74.581],[59.147,74.444],[59.291,74.643],[59.122,74.747],[59.6,74.597],[59.874,74.628],[59.77,74.726],[60.277,74.75],[60.194,74.854],[60.562,74.866],[60.623,74.969],[60.011,74.98],[60.569,75.046],[60.724,75.028],[60.832,75.154],[61.109,75.198],[61.379,75.334],[61.483,75.224],[61.732,75.381],[62.272,75.44],[63.031,75.587],[63.708,75.636],[65.216,75.855],[66.178,75.962],[66.685,76.061],[67.146,76.105],[67.913,76.258],[68.287,76.281],[68.345,76.35],[68.939,76.567],[68.788,76.589],[68.932,76.788],[68.464,76.967],[67.589,77.014],[66.944,76.95],[66.408,76.849],[65.753,76.683],[65.99,76.533],[65.612,76.58],[65.101,76.47],[64.828,76.484],[64.626,76.374],[64.475,76.399],[64.036,76.316],[63.719,76.35],[62.956,76.207],[62.779,76.271],[62.39,76.197],[62.383,76.271],[62.095,76.254],[61.638,76.311],[61.076,76.28],[60.9,76.157],[61.087,76.085],[60.734,76.005],[60.482,76.026],[60.839,76.122],[60.266,76.109],[60.043,76.054],[60.324,75.998],[59.748,75.931],[59.399,75.938],[58.931,75.868],[58.603,75.733],[58.02,75.682],[58.186,75.589],[57.563,75.52],[57.743,75.328],[57.048,75.398],[56.735,75.297],[56.882,75.224],[56.447,75.068],[56.371,75.188],[56.036,75.218],[55.81,75.156],[55.864,75.003],[56.422,75.038],[56.317,74.967],[56.663,74.945],[55.885,74.846],[55.939,74.781],[56.465,74.799],[56.602,74.71]]],[[[53.232,71.217],[52.53,71.388],[52.256,71.348],[52.256,71.274],[52.771,71.168],[53.009,70.968],[53.232,71.217]]],[[[51.346,79.953],[51.266,80.056],[51,80.102],[50.554,79.988],[50.046,79.975],[51.421,79.916],[51.346,79.953]]],[[[50.082,80.068],[50.316,80.168],[49.898,80.234],[49.531,80.159],[50.082,80.068]]],[[[55.795,80.642],[56.328,80.625],[56.929,80.663],[56.53,80.788],[55.781,80.76],[55.432,80.715],[55.795,80.642]]],[[[46.687,80.529],[47.781,80.765],[48.062,80.662],[48.728,80.61],[48.455,80.728],[48.656,80.755],[48.275,80.831],[47.864,80.812],[47.537,80.856],[47.137,80.842],[46.921,80.749],[45.096,80.649],[45.517,80.52],[46.071,80.567],[46.082,80.44],[46.482,80.46],[46.687,80.529]]],[[[62.221,80.813],[62.066,80.879],[60.313,80.811],[60.169,80.854],[59.51,80.803],[59.23,80.645],[59.24,80.529],[59.687,80.427],[60.306,80.496],[61.044,80.406],[61.606,80.529],[61.706,80.597],[62.074,80.615],[62.221,80.813]]],[[[58.132,80.781],[58.42,80.749],[58.895,80.773],[59.014,80.823],[58.747,80.902],[57.844,80.825],[58.132,80.781]]],[[[55.766,80.783],[55.986,80.803],[55.097,80.902],[53.984,80.829],[54.877,80.722],[55.766,80.783]]],[[[51.688,80.728],[51.306,80.776],[50.251,80.742],[50.471,80.811],[50.982,80.831],[50.723,80.895],[50.237,80.934],[49.002,80.776],[49.203,80.693],[49.628,80.73],[49.632,80.64],[49.135,80.517],[48.57,80.506],[48.415,80.57],[48.012,80.547],[47.425,80.443],[48.102,80.476],[48.203,80.416],[47.619,80.406],[48.188,80.337],[48.015,80.31],[47.223,80.31],[47.09,80.371],[46.651,80.314],[47.101,80.171],[47.45,80.24],[47.929,80.247],[47.663,80.071],[48.116,80.137],[48.372,80.092],[48.498,80.192],[48.969,80.152],[49.106,80.189],[48.653,80.317],[48.84,80.388],[49.491,80.364],[49.815,80.401],[49.729,80.494],[50.122,80.527],[50.95,80.537],[51.176,80.619],[51.702,80.677],[51.688,80.728]]],[[[58.654,81.044],[58.07,81.111],[57.883,81.03],[58.254,80.955],[58.56,80.957],[58.654,81.044]]],[[[57.336,80.892],[57.836,80.854],[58.283,80.926],[57.75,80.971],[57.646,81.024],[56.702,81.113],[56.144,81.092],[56.8,81.028],[57.336,80.892]]],[[[54.564,80.995],[55,80.951],[55.316,80.975],[55.799,80.855],[56.67,80.809],[57.059,80.692],[57.563,80.749],[57.682,80.816],[56.652,80.944],[56.623,80.982],[56.018,81.044],[55.576,81.007],[54.647,81.123],[54.564,80.995]]],[[[50.478,81.07],[50.752,81.041],[50.978,81.105],[50.528,81.168],[50.478,81.07]]],[[[57.268,81.427],[57.797,81.379],[58.571,81.413],[58.402,81.475],[57.89,81.486],[57.782,81.565],[57.012,81.536],[56.756,81.45],[57.268,81.427]]],[[[62.502,81.653],[62.689,81.615],[63.467,81.589],[63.805,81.661],[63.679,81.695],[62.225,81.702],[62.502,81.653]]],[[[58.297,81.714],[59.356,81.754],[59.215,81.858],[57.977,81.817],[57.991,81.691],[58.297,81.714]]],[[[59.003,79.981],[59.374,79.919],[59.928,79.995],[59.788,80.094],[59.528,80.121],[58.798,80.044],[59.003,79.981]]],[[[55.712,80.104],[55.95,80.078],[56.958,80.066],[57.138,80.118],[57.131,80.307],[57.023,80.364],[56.641,80.324],[55.99,80.337],[56.047,80.201],[55.712,80.104]]],[[[52.624,80.184],[53.491,80.172],[53.862,80.277],[53.531,80.31],[53.34,80.398],[52.861,80.406],[52.57,80.29],[52.184,80.277],[52.624,80.184]]],[[[57.53,80.131],[57.97,80.099],[57.912,80.184],[58.405,80.165],[58.43,80.242],[58.078,80.262],[58.592,80.337],[59.276,80.33],[59.194,80.378],[58.452,80.469],[56.947,80.481],[57.275,80.391],[57.289,80.169],[57.53,80.131]]],[[[53.797,80.473],[54.24,80.42],[54.467,80.481],[54.269,80.589],[53.884,80.61],[53.797,80.473]]],[[[60.256,81.037],[60.068,80.979],[60.986,80.922],[61.598,81.031],[61.681,81.114],[60.612,81.092],[60.256,81.037]]],[[[62.772,80.885],[62.531,80.843],[63.132,80.683],[63.686,80.728],[64.424,80.74],[65,80.809],[65.447,80.919],[65.45,81.022],[65.231,81.137],[64.705,81.206],[64.273,81.17],[64.036,80.987],[63.143,80.971],[62.772,80.885]]],[[[57.336,81.206],[56.994,81.165],[57.7,81.137],[58.085,81.214],[57.887,81.246],[57.336,81.206]]],[[[55.648,81.2],[56.242,81.228],[56.616,81.178],[57.048,81.253],[57.905,81.297],[56.728,81.397],[56.335,81.386],[56.544,81.254],[55.712,81.33],[55.464,81.324],[55.648,81.2]]],[[[58.564,81.324],[59.341,81.304],[59.017,81.403],[58.564,81.324]]],[[[40.455,64.582],[40.229,64.699],[39.854,64.699],[40.196,64.574],[40.455,64.582]]],[[[40.146,64.734],[40.398,64.629],[40.333,64.772],[40.146,64.734]]],[[[58.816,79.916],[58.614,79.979],[58.25,79.939],[58.816,79.916]]],[[[54.409,80.285],[54.11,80.287],[54.139,80.197],[54.409,80.285]]],[[[55.5,80.317],[54.938,80.264],[55.075,80.22],[55.5,80.317]]],[[[54.841,80.431],[54.708,80.476],[54.391,80.387],[54.841,80.431]]],[[[60.562,81.274],[59.842,81.287],[60.432,81.244],[60.562,81.274]]],[[[59.24,69.177],[59.15,69.255],[58.783,69.326],[59.24,69.177]]],[[[50.323,69.15],[50.165,69.26],[49.272,69.508],[48.807,69.494],[48.303,69.277],[48.217,68.91],[48.591,68.731],[49.25,68.779],[49.718,68.89],[49.956,69.074],[50.323,69.15]]],[[[60.54,69.818],[60.475,69.92],[60.011,70.105],[59.536,70.209],[59.543,70.253],[59.024,70.48],[58.524,70.331],[58.823,70.216],[58.466,70.271],[58.571,70.079],[59.017,69.86],[58.938,69.942],[59.431,69.89],[59.604,69.818],[59.564,69.715],[60.202,69.685],[60.475,69.723],[60.54,69.818]]]]}}
