{"type":"Feature","properties":{"zoneName":"RU-KGD","countryKey":"RU","countryName":"Russian Federation"},"geometry":{"type":"MultiPolygon","coordinates":[[[[21.267,55.249],[21.181,55.193],[21.231,54.939],[21.08,54.899],[20.529,54.965],[20.99,55.273],[20.925,55.283],[20.634,55.048],[20.367,54.947],[20.032,54.948],[19.831,54.597],[19.611,54.457],[19.68,54.437],[21.256,54.332],[22.7,54.343],[22.768,54.356],[22.682,54.453],[22.808,54.894],[22.581,55.058],[22.25,55.071],[22.099,55.03],[21.267,55.249]]]]}}
