{"type":"Feature","properties":{"zoneName":"SE-SE1","countryKey":"SE","countryName":"Sweden"},"geometry":{"type":"MultiPolygon","coordinates":[[[[16.389,67.044],[16.407,67.206],[16.1,67.437],[16.157,67.52],[16.414,67.535],[16.739,67.911],[17.186,68.055],[17.284,68.119],[17.894,67.969],[18.154,68.194],[18.105,68.408],[18.128,68.534],[18.411,68.58],[18.621,68.506],[18.985,68.517],[19.925,68.355],[20.223,68.49],[19.943,68.556],[20.206,68.667],[20.338,68.805],[20.307,68.924],[20.065,69.048],[20.549,69.06],[20.936,68.967],[21.465,68.686],[21.919,68.568],[22.074,68.478],[22.808,68.394],[23.053,68.299],[23.15,68.13],[23.661,67.932],[23.499,67.882],[23.553,67.587],[23.431,67.486],[23.766,67.42],[23.582,67.154],[24,66.812],[23.881,66.564],[23.643,66.437],[23.722,66.206],[24.021,66.049],[24.162,65.823],[23.928,65.76],[23.69,65.83],[23.373,65.823],[23.128,65.716],[22.686,65.863],[22.678,65.764],[22.477,65.857],[22.257,65.693],[22.405,65.542],[21.789,65.687],[22.178,65.539],[21.854,65.535],[21.944,65.412],[21.49,65.394],[21.703,65.286],[21.62,65.147],[21.139,64.799],[21.604,64.448],[21.01,64.156],[20.703,64.292],[20.618,64.291],[20.28,64.207],[20.047,64.205],[20.101,64.267],[20.022,64.273],[20.031,64.292],[19.549,64.408],[19.55,64.706],[18.42,65.091],[18.438,65.138],[18.168,65.244],[18.297,65.513],[18.067,65.598],[17.676,65.655],[16.778,66.032],[16.523,66.054],[15.778,66.29],[15.457,66.345],[15.372,66.485],[15.624,66.596],[16.036,66.912],[16.389,67.044]]]]}}
