{"type":"Feature","properties":{"zoneName":"SE-SE4","countryKey":"SE","countryName":"Sweden"},"geometry":{"type":"MultiPolygon","coordinates":[[[[12.38,56.91],[12.35,56.99],[12.47,57.02],[12.65,57.22],[12.93,57.22],[13.06,57.38],[13.49,57.3],[13.5,57.27],[13.58,57.27],[13.63,57.4],[13.72,57.46],[13.89,57.47],[14.04,57.32],[14.22,57.33],[14.27,57.38],[14.36,57.37],[14.41,57.31],[14.59,57.24],[14.75,57.24],[14.97,57.17],[15.08,57.38],[15.29,57.36],[15.36,57.38],[15.54,57.38],[15.57,57.4],[15.63,57.39],[15.86,57.47],[15.98,57.41],[16.04,57.4],[16.09,57.32],[16.15,57.32],[16.23,57.29],[16.27,57.33],[16.25,57.37],[16.39,57.37],[16.56,57.32],[16.46,57.18],[16.58,57.04],[16.09,56.42],[16.04,56.25],[15.85,56.09],[15.57,56.21],[15.32,56.14],[14.69,56.15],[14.77,56.03],[14.48,56.03],[14.21,55.82],[14.36,55.52],[14.18,55.39],[13.88,55.43],[13.28,55.35],[12.96,55.4],[12.9,55.57],[13.06,55.68],[12.92,55.75],[12.5,56.27],[12.8,56.23],[12.62,56.42],[12.89,56.45],[12.87,56.65],[12.73,56.65],[12.6,56.82],[12.38,56.91]]],[[[16.57,56.82],[16.84,57.01],[17.03,57.33],[17.2,57.38],[16.42,56.21],[16.38,56.47],[16.57,56.82]]],[[[12.72,55.91],[12.71,55.89],[12.67,55.92],[12.72,55.91]]]]}}
