{"type":"Feature","properties":{"zoneName":"SE-SE2","countryKey":"SE","countryName":"Sweden"},"geometry":{"type":"MultiPolygon","coordinates":[[[[20.31,63.655],[20.072,63.666],[19.752,63.525],[19.687,63.432],[19.471,63.562],[19.507,63.411],[19.28,63.46],[19.269,63.343],[19.035,63.178],[18.643,63.147],[18.394,62.945],[18.47,62.868],[18.078,62.773],[17.926,62.822],[18.042,62.626],[17.707,62.437],[17.437,62.537],[17.336,62.404],[17.509,62.218],[17.354,61.955],[17.401,61.723],[17.055,61.583],[17.178,61.487],[17.169,61.023],[17.237,60.891],[16.929,60.778],[16.841,60.774],[16.838,60.808],[16.731,60.811],[16.633,60.785],[16.387,60.787],[16.138,61.005],[15.589,61.263],[15.416,61.263],[15.416,61.312],[14.721,61.31],[14.319,61.467],[14.092,61.451],[14.053,61.534],[13.653,61.586],[13.559,61.644],[13.598,61.656],[12.803,62.219],[12.609,62.213],[12.298,62.264],[12.057,62.611],[12.137,62.749],[12.075,62.902],[12.218,63.001],[11.973,63.267],[12.213,63.477],[12.151,63.591],[12.683,63.973],[12.926,64.059],[13.211,64.096],[13.968,64.008],[14.158,64.195],[14.114,64.464],[13.642,64.584],[14.327,65.12],[14.38,65.245],[14.504,65.309],[14.496,65.516],[14.536,65.694],[14.625,65.813],[14.518,66.13],[15.037,66.155],[15.485,66.283],[15.457,66.345],[15.778,66.29],[16.523,66.054],[16.778,66.032],[17.676,65.655],[18.067,65.598],[18.297,65.513],[18.168,65.244],[18.438,65.138],[18.42,65.091],[19.55,64.706],[19.549,64.408],[20.031,64.292],[20.022,64.273],[20.101,64.267],[20.047,64.205],[20.28,64.207],[20.618,64.291],[20.703,64.292],[21.01,64.156],[20.778,63.869],[20.504,63.822],[20.31,63.655]]]]}}
