{"type":"Feature","properties":{"zoneName":"SE-SE3","countryKey":"SE","countryName":"Sweden"},"geometry":{"type":"MultiPolygon","coordinates":[[[[18.56,60.23],[18.33,60.29],[18.51,60.16],[18.82,60.11],[18.95,59.9],[19.08,59.87],[19.07,59.72],[18.41,59.49],[18.01,59.41],[18.28,59.31],[18.42,59.14],[18.04,59.06],[17.9,58.92],[17.75,58.92],[17.76,59.13],[17.61,59.09],[17.59,58.87],[16.93,58.63],[16.23,58.67],[16.41,58.6],[16.79,58.61],[16.94,58.49],[16.72,58.44],[16.78,58.13],[16.56,57.32],[16.39,57.37],[16.25,57.37],[16.27,57.33],[16.23,57.29],[16.15,57.32],[16.09,57.32],[16.04,57.4],[15.98,57.41],[15.86,57.47],[15.63,57.39],[15.57,57.4],[15.54,57.38],[15.36,57.38],[15.29,57.36],[15.08,57.38],[14.97,57.17],[14.75,57.24],[14.59,57.24],[14.41,57.31],[14.36,57.37],[14.27,57.38],[14.22,57.33],[14.04,57.32],[13.89,57.47],[13.72,57.46],[13.63,57.4],[13.58,57.27],[13.5,57.27],[13.49,57.3],[13.06,57.38],[12.93,57.22],[12.65,57.22],[12.47,57.02],[12.35,56.99],[12.1,57.51],[11.95,57.37],[11.71,57.72],[11.69,57.84],[11.55,57.96],[11.49,58.06],[11.36,58.15],[11.41,58.43],[11.23,58.34],[11.29,58.58],[11.12,58.97],[11.16,59.07],[11.3,59.12],[11.37,59.1],[11.45,58.9],[11.67,58.92],[11.81,59.29],[11.68,59.56],[11.9,59.77],[11.85,59.87],[12.14,59.9],[12.45,60.05],[12.61,60.49],[12.34,60.83],[12.28,61.02],[12.67,61.05],[12.87,61.36],[12.57,61.57],[12.42,61.57],[12.14,61.72],[12.3,62.26],[12.61,62.21],[12.8,62.22],[13.6,61.66],[13.56,61.64],[13.65,61.59],[14.05,61.53],[14.09,61.45],[14.32,61.47],[14.72,61.31],[15.42,61.31],[15.42,61.26],[15.59,61.26],[16.14,61],[16.39,60.79],[16.63,60.79],[16.73,60.81],[16.84,60.81],[16.84,60.77],[16.93,60.78],[17.24,60.89],[17.31,60.75],[17.19,60.7],[17.57,60.65],[17.64,60.51],[17.92,60.6],[17.97,60.51],[18.56,60.23]]],[[[18.08,57.57],[18.74,57.94],[19.37,58.03],[18.84,57.65],[18.83,57.3],[18.47,56.99],[18.15,56.92],[18.08,57.57]]]]}}
