{"type":"Feature","properties":{"zoneName":"SI","countryKey":"SI","countryName":"Slovenia"},"geometry":{"type":"MultiPolygon","coordinates":[[[[13.71,46.52],[13.37,46.29],[13.57,46.18],[13.66,46.18],[13.62,46.13],[13.51,46.07],[13.47,46],[13.56,45.97],[13.64,45.98],[13.57,45.84],[13.6,45.81],[13.67,45.8],[13.92,45.63],[13.71,45.59],[13.59,45.49],[13.89,45.42],[13.97,45.51],[14.37,45.48],[14.56,45.66],[14.67,45.53],[15.14,45.43],[15.36,45.48],[15.25,45.71],[15.67,45.83],[15.66,46.22],[16.28,46.38],[16.23,46.49],[16.52,46.5],[16.27,46.86],[16.09,46.86],[16.01,46.69],[15.64,46.72],[15.46,46.61],[15.06,46.65],[14.85,46.6],[14.54,46.38],[14.41,46.44],[13.71,46.52]]]]}}
