{"type":"Feature","properties":{"zoneName":"SK","countryKey":"SK","countryName":"Slovakia"},"geometry":{"type":"MultiPolygon","coordinates":[[[[17.149,48.006],[17.34,47.999],[17.574,47.83],[17.826,47.75],[18.236,47.754],[18.816,47.833],[18.837,48.04],[19.482,48.112],[19.622,48.228],[19.885,48.129],[20.324,48.281],[20.482,48.527],[20.785,48.57],[21.109,48.49],[21.426,48.561],[21.728,48.341],[22.131,48.405],[22.153,48.585],[22.322,48.7],[22.538,49.072],[22.012,49.211],[21.818,49.377],[21.26,49.45],[20.943,49.295],[20.691,49.401],[20.306,49.387],[20.05,49.174],[19.748,49.207],[19.77,49.393],[19.626,49.401],[19.442,49.602],[19.172,49.403],[18.963,49.39],[18.834,49.51],[18.535,49.481],[18.189,49.277],[18.074,49.048],[17.534,48.813],[17.167,48.86],[16.944,48.604],[16.843,48.365],[17.149,48.006]]]]}}
