{"type":"Feature","properties":{"zoneName":"TR","countryKey":"TR","countryName":"Turkey"},"geometry":{"type":"MultiPolygon","coordinates":[[[[43.44,41.107],[43.231,41.172],[42.821,41.572],[42.587,41.579],[42.439,41.431],[41.949,41.506],[41.813,41.421],[41.521,41.514],[41.391,41.38],[40.697,41.098],[40.124,40.921],[39.591,41.025],[39.429,41.112],[39.275,41.051],[38.929,41.042],[38.717,40.955],[38.331,40.918],[37.896,40.982],[37.691,41.141],[37.579,41.036],[37.039,41.181],[36.985,41.294],[36.621,41.376],[36.452,41.241],[36.135,41.462],[36.121,41.628],[35.955,41.736],[35.531,41.635],[35.225,41.762],[34.947,42.098],[34.695,41.947],[34.332,41.948],[33.324,42.02],[32.928,41.882],[32.611,41.839],[32.262,41.721],[32.136,41.599],[31.405,41.317],[31.232,41.092],[30.833,41.079],[30.271,41.211],[29.886,41.15],[29.23,41.241],[29.068,41.152],[29.029,40.982],[29.356,40.762],[29.929,40.757],[29.562,40.692],[28.986,40.644],[28.773,40.523],[29.151,40.434],[28.957,40.364],[28.773,40.403],[27.906,40.4],[28.035,40.474],[27.682,40.503],[27.79,40.321],[27.452,40.322],[27.304,40.458],[27.013,40.393],[26.736,40.404],[26.408,40.194],[26.311,40.019],[26.152,39.943],[26.149,39.625],[26.073,39.475],[26.894,39.584],[26.926,39.485],[26.61,39.275],[26.883,39.072],[26.854,38.917],[27.042,38.94],[26.887,38.734],[26.718,38.721],[26.934,38.435],[27.088,38.402],[26.674,38.307],[26.631,38.519],[26.505,38.652],[26.347,38.621],[26.476,38.368],[26.235,38.274],[26.588,38.108],[26.761,38.217],[26.865,38.04],[27.24,37.988],[27.25,37.745],[27.013,37.666],[27.207,37.596],[27.211,37.357],[27.438,37.392],[27.463,37.253],[27.618,37.274],[27.474,37.092],[27.322,37.124],[27.265,36.964],[28.305,37.051],[28.028,36.926],[28.057,36.809],[27.625,36.802],[27.362,36.685],[27.672,36.657],[27.736,36.76],[28.046,36.763],[28.111,36.604],[28.287,36.743],[28.273,36.852],[28.604,36.816],[28.622,36.699],[28.842,36.637],[28.939,36.752],[29.097,36.665],[29.036,36.546],[29.144,36.35],[29.673,36.124],[30.253,36.308],[30.401,36.248],[30.57,36.529],[30.57,36.782],[30.685,36.891],[31.34,36.809],[32.028,36.543],[32.366,36.178],[32.805,36.028],[33.133,36.132],[33.684,36.144],[33.871,36.315],[33.957,36.214],[34.076,36.414],[34.555,36.768],[34.771,36.816],[35.347,36.544],[35.631,36.607],[35.685,36.765],[36.02,36.926],[36.189,36.802],[36.189,36.604],[35.79,36.32],[35.977,36.019],[35.912,35.918],[36.139,35.82],[36.359,35.993],[36.373,36.228],[36.665,36.229],[36.535,36.494],[36.657,36.828],[36.963,36.753],[37.014,36.642],[37.446,36.634],[38.191,36.905],[38.529,36.833],[38.663,36.719],[39.239,36.662],[39.764,36.742],[40.707,37.101],[41.481,37.075],[42.011,37.175],[42.212,37.324],[42.356,37.11],[42.561,37.147],[42.723,37.359],[43.083,37.369],[43.479,37.243],[43.893,37.226],[43.991,37.313],[44.225,37.254],[44.181,37.088],[44.307,36.978],[44.577,37.167],[44.765,37.143],[44.801,37.293],[44.567,37.447],[44.595,37.716],[44.221,37.968],[44.459,38.322],[44.289,38.382],[44.275,38.844],[44.138,38.994],[44.063,39.401],[44.405,39.434],[44.459,39.698],[44.567,39.766],[44.808,39.64],[44.775,39.703],[44.466,39.972],[44.257,40.043],[44.034,40.009],[43.667,40.111],[43.721,40.169],[43.562,40.464],[43.728,40.677],[43.605,40.964],[43.44,41.107]]],[[[26.332,41.713],[26.595,41.612],[26.635,41.379],[26.332,41.254],[26.358,40.965],[26.044,40.739],[26.077,40.611],[26.829,40.601],[26.21,40.322],[26.156,40.055],[26.617,40.36],[26.682,40.455],[27.178,40.633],[27.524,40.989],[27.96,40.975],[28.237,41.085],[28.597,40.978],[28.982,41.002],[29.108,41.235],[28.384,41.447],[28.082,41.645],[27.97,41.822],[28.017,41.972],[27.808,41.994],[27.546,41.901],[27.272,42.091],[26.548,41.927],[26.332,41.713]]],[[[26.012,40.166],[25.915,40.241],[25.663,40.126],[26.012,40.166]]]]}}
