{"type":"Feature","properties":{"zoneName":"UA-CR","countryKey":"UA","countryName":"Ukraine"},"geometry":{"type":"MultiPolygon","coordinates":[[[[33.63,46.13],[33.78,45.93],[32.87,45.63],[32.52,45.46],[32.51,45.34],[32.9,45.35],[33.26,45.16],[33.56,45.09],[33.57,44.85],[33.51,44.65],[33.38,44.56],[33.73,44.4],[33.96,44.38],[34.32,44.54],[34.47,44.73],[35,44.83],[35.63,45.12],[35.85,44.99],[36.44,45.07],[36.42,45.23],[36.58,45.43],[36.14,45.46],[35.99,45.36],[35.86,45.47],[35.7,45.33],[35.48,45.3],[35.33,45.37],[35,45.73],[34.79,45.8],[34.69,45.97],[33.67,46.22],[33.63,46.13]]]]}}
