{"type":"Feature","properties":{"zoneName":"UA","countryKey":"UA","countryName":"Ukraine"},"geometry":{"type":"MultiPolygon","coordinates":[[[[23.61,51.52],[23.63,51.34],[23.87,51.14],[23.91,51.01],[24.13,50.84],[23.97,50.83],[24.11,50.54],[23.98,50.4],[23.75,50.39],[23.1,49.96],[22.64,49.53],[22.71,49.17],[22.85,48.99],[22.54,49.07],[22.32,48.7],[22.15,48.59],[22.13,48.41],[22.27,48.4],[22.36,48.24],[22.6,48.1],[22.75,48.12],[22.88,47.95],[23.12,48.09],[23.36,47.99],[23.78,47.99],[24.23,47.9],[24.56,47.94],[24.9,47.71],[25.12,47.77],[25.26,47.9],[26.17,47.99],[26.3,48.21],[26.62,48.26],[26.84,48.39],[27.17,48.36],[27.5,48.47],[27.75,48.45],[28.08,48.24],[28.37,48.23],[28.8,48.11],[28.95,47.93],[29.12,47.98],[29.24,47.87],[29.12,47.53],[29.41,47.28],[29.56,47.32],[29.56,46.95],[29.93,46.81],[29.91,46.52],[30.08,46.37],[29.85,46.34],[29.71,46.47],[29.6,46.36],[29.46,46.48],[29.2,46.36],[29.16,46.54],[28.95,46.45],[29.01,46.18],[28.96,46],[28.76,45.96],[28.74,45.84],[28.47,45.66],[28.48,45.5],[28.2,45.46],[28.33,45.32],[28.78,45.23],[29.32,45.44],[29.65,45.35],[29.66,45.22],[29.73,45.48],[29.6,45.49],[29.64,45.83],[29.73,45.61],[29.99,45.85],[30.14,45.82],[30.49,46.08],[30.8,46.45],[30.75,46.52],[30.99,46.6],[31.48,46.65],[31.86,46.63],[31.94,46.8],[32.02,46.63],[32.52,46.59],[32.36,46.47],[31.58,46.54],[32.01,46.45],[31.82,46.35],[32.26,46.13],[32.5,46.08],[33.12,46.14],[33.23,46.22],[33.51,46.05],[33.63,46.13],[33.67,46.22],[34.69,45.97],[34.79,45.8],[35,45.73],[34.81,46.17],[35.07,46.27],[35.29,46.44],[35.38,46.37],[35.9,46.65],[36.19,46.67],[36.7,46.78],[36.8,46.73],[37.02,46.87],[37.33,46.88],[37.58,47.09],[38.22,47.1],[38.2,47.29],[38.35,47.61],[38.73,47.68],[38.83,47.85],[39.76,47.83],[39.84,48.12],[39.99,48.27],[39.81,48.58],[39.63,48.59],[39.7,48.75],[39.95,48.85],[39.76,48.9],[39.68,49.02],[39.92,49.05],[40.14,49.25],[40.04,49.46],[40.12,49.59],[39.8,49.54],[39.56,49.72],[39.33,49.73],[39.18,49.86],[38.94,49.8],[38.69,49.91],[38.17,50.06],[38,49.9],[37.73,50.08],[37.43,50.42],[36.91,50.34],[36.6,50.2],[36.27,50.28],[36.11,50.42],[35.84,50.42],[35.7,50.35],[35.45,50.48],[35.47,50.67],[35.1,51.18],[34.75,51.16],[34.62,51.22],[34.19,51.25],[34.3,51.37],[34.13,51.68],[34.37,51.71],[34.37,51.83],[34.1,51.95],[34.05,52.17],[33.8,52.35],[33.53,52.29],[33.2,52.37],[32.93,52.25],[32.36,52.32],[32.23,52.08],[31.89,52.04],[31.76,52.1],[31.47,52.12],[31.25,52.04],[30.96,52.07],[30.66,51.82],[30.52,51.6],[30.64,51.34],[30.54,51.24],[30.15,51.48],[29.85,51.43],[29.62,51.49],[29.32,51.37],[29.12,51.63],[28.86,51.56],[28.73,51.4],[28.6,51.55],[28.35,51.52],[28.21,51.65],[28.07,51.56],[27.81,51.6],[27.25,51.6],[27.18,51.75],[26.85,51.75],[26.41,51.85],[25.77,51.93],[25.18,51.95],[24.72,51.88],[24.39,51.88],[24.24,51.72],[23.98,51.59],[23.75,51.65],[23.61,51.52]]]]}}
