{"type": "Feature", "properties": {"zoneName": "XK", "countryKey": "XK", "countryName": "Kosovo"}, "geometry": {"type": "MultiPolygon", "coordinates": [[[[20.568805688056898, 41.87367250444305], [20.748807488074902, 41.9065874096011], [20.766807668076694, 42.06400652122652], [21.09801098010982, 42.19566614185868], [21.238412384123848, 42.096921426384554], [21.562415624156273, 42.24575404101222], [21.764017640176434, 42.66935455956789], [21.378813788137904, 42.74377086688172], [21.09081090810909, 43.090092912457635], [20.83880838808389, 43.17023355110331], [20.8208082080821, 43.25752960391377], [20.597605976059782, 43.18454437943289], [20.669606696066978, 43.11012807211905], [20.34560345603458, 42.82677367119331], [20.02520025200255, 42.7237357072203], [20.064800648006496, 42.546281435933466], [20.230402304023073, 42.327325762490844], [20.500405004050066, 42.211408053021216], [20.568805688056898, 41.87367250444305]]]]}}